{"type":"FeatureCollection","crs":{"type":"name","properties":{"name":"urn:ogc:def:crs:OGC:1.3:CRS84"}},"features":[{"type":"Feature","properties":{"name":"제주도산지","note":"변경 없음(그대로 사용)","source":"approx_union_2026-08-24"},"geometry":{"type":"MultiPolygon","coordinates":[[[[126.3811,33.35779],[126.38108,33.36023],[126.37722,33.36021],[126.37723,33.35777],[126.3811,33.35779]]],[[[126.37921,33.3521],[126.37922,33.34967],[126.38308,33.35131],[126.38209,33.35455],[126.37921,33.3521]]],[[[126.63423,33.40992],[126.63035,33.41072],[126.62937,33.41477],[126.62453,33.41557],[126.62548,33.41882],[126.62161,33.41881],[126.62063,33.42205],[126.62256,33.42205],[126.62252,33.43098],[126.61866,33.43016],[126.61864,33.4334],[126.61477,33.43339],[126.61188,33.43095],[126.5993,33.4301],[126.59351,33.42764],[126.59255,33.42602],[126.58867,33.42682],[126.57706,33.42678],[126.5761,33.42515],[126.57223,33.42433],[126.56546,33.4243],[126.56546,33.42349],[126.55772,33.42346],[126.55579,33.42183],[126.55192,33.42182],[126.54903,33.42019],[126.53548,33.42014],[126.53548,33.42095],[126.52774,33.42092],[126.52581,33.41848],[126.52388,33.41766],[126.51808,33.41764],[126.51323,33.41924],[126.50646,33.41921],[126.50451,33.42083],[126.49871,33.41999],[126.49775,33.41837],[126.49388,33.41835],[126.49099,33.41672],[126.49003,33.41509],[126.48616,33.41507],[126.48133,33.41343],[126.48036,33.41505],[126.47551,33.41665],[126.46777,33.41581],[126.46682,33.41418],[126.46005,33.41253],[126.46006,33.4109],[126.45814,33.40927],[126.45427,33.40926],[126.45331,33.40763],[126.44752,33.40598],[126.43978,33.40595],[126.43686,33.40756],[126.43587,33.4108],[126.43201,33.40997],[126.43203,33.40753],[126.43012,33.40347],[126.42624,33.40426],[126.42238,33.40343],[126.42142,33.4018],[126.41369,33.40096],[126.4137,33.39933],[126.41081,33.3977],[126.41082,33.39526],[126.40504,33.39199],[126.40506,33.38956],[126.40313,33.38792],[126.40315,33.38549],[126.40027,33.38304],[126.39835,33.37979],[126.39449,33.37977],[126.3906,33.38218],[126.38576,33.38216],[126.38384,33.38134],[126.38289,33.3789],[126.38388,33.37485],[126.38872,33.37406],[126.39161,33.3757],[126.3955,33.37328],[126.39648,33.37166],[126.3965,33.36761],[126.39555,33.36598],[126.39266,33.36353],[126.39171,33.36109],[126.38979,33.35946],[126.38981,33.35702],[126.39175,33.35622],[126.3908,33.35378],[126.39083,33.34973],[126.3918,33.34811],[126.3947,33.34812],[126.39566,33.34975],[126.39856,33.34976],[126.39954,33.34815],[126.39956,33.3449],[126.39859,33.3449],[126.40054,33.34247],[126.40058,33.3376],[126.39865,33.33678],[126.39868,33.33272],[126.39772,33.33191],[126.39483,33.32946],[126.39291,33.32864],[126.39292,33.3262],[126.39584,33.32378],[126.39874,33.3238],[126.39874,33.32299],[126.40841,33.32303],[126.41324,33.32387],[126.41711,33.32226],[126.41713,33.32064],[126.42005,33.31741],[126.42681,33.31744],[126.42972,33.31664],[126.43069,33.31502],[126.43359,33.31504],[126.43457,33.31342],[126.43845,33.31181],[126.44232,33.31102],[126.4433,33.30778],[126.44622,33.30536],[126.45395,33.30539],[126.45395,33.30458],[126.46362,33.30462],[126.46748,33.30545],[126.47233,33.30222],[126.47523,33.30224],[126.47715,33.30387],[126.48295,33.30308],[126.48393,33.30146],[126.48972,33.3023],[126.49746,33.30152],[126.4994,33.2999],[126.50423,33.29992],[126.50712,33.30155],[126.51389,33.29996],[126.51873,33.29998],[126.52065,33.30161],[126.52548,33.30244],[126.52741,33.30326],[126.52933,33.30408],[126.53899,33.30492],[126.54091,33.30736],[126.54284,33.30818],[126.54671,33.3082],[126.54766,33.30982],[126.54764,33.31469],[126.5486,33.31551],[126.55537,33.31553],[126.55729,33.31716],[126.56019,33.31717],[126.56214,33.31474],[126.56889,33.3172],[126.57082,33.31721],[126.57275,33.31884],[126.57466,33.32371],[126.57755,33.32535],[126.5785,33.3286],[126.58042,33.33104],[126.58235,33.33185],[126.58524,33.33349],[126.5862,33.33511],[126.59006,33.33756],[126.60263,33.3376],[126.60358,33.33923],[126.60648,33.33924],[126.60744,33.34086],[126.60743,33.34411],[126.61128,33.34818],[126.61418,33.34819],[126.61514,33.34981],[126.62093,33.35226],[126.62576,33.35228],[126.62673,33.35309],[126.62671,33.35796],[126.6296,33.35878],[126.62957,33.3669],[126.63342,33.37097],[126.63341,33.37421],[126.63437,33.37584],[126.63823,33.37747],[126.64014,33.38316],[126.64304,33.38479],[126.64301,33.39047],[126.64494,33.39291],[126.65364,33.39293],[126.6546,33.39456],[126.65459,33.39862],[126.65652,33.39862],[126.65652,33.40024],[126.65748,33.40025],[126.65651,33.40187],[126.65264,33.40267],[126.65264,33.40104],[126.64781,33.40103],[126.64685,33.39941],[126.64394,33.3994],[126.64393,33.40345],[126.64101,33.40588],[126.63617,33.40749],[126.63423,33.40992]]],[[[126.62252,33.43098],[126.6293,33.431],[126.63027,33.42938],[126.63414,33.4302],[126.63316,33.43345],[126.63026,33.43344],[126.62928,33.43587],[126.62541,33.43586],[126.62251,33.43423],[126.62252,33.43098]]]]}},{"type":"Feature","properties":{"name":"추자도","note":"변경 없음(그대로 사용)","source":"approx_union_2026-08-24"},"geometry":{"type":"MultiPolygon","coordinates":[[[[126.24974,33.99017],[126.24593,33.98733],[126.25212,33.98573],[126.25213,33.9878],[126.24974,33.99017]]],[[[126.28444,33.96891],[126.28149,33.97081],[126.28134,33.96936],[126.28386,33.96781],[126.28302,33.96552],[126.2853,33.96388],[126.28664,33.96453],[126.28916,33.96272],[126.28541,33.9613],[126.28889,33.95822],[126.29896,33.95209],[126.30175,33.95249],[126.30291,33.95423],[126.30053,33.95686],[126.30195,33.95869],[126.29608,33.96235],[126.30044,33.96269],[126.29588,33.96578],[126.28441,33.96757],[126.28444,33.96891]]],[[[126.29296,33.98224],[126.29633,33.98374],[126.29344,33.98435],[126.29296,33.98224]]],[[[126.33311,33.95603],[126.33157,33.954],[126.32591,33.95153],[126.31369,33.95492],[126.3107,33.95233],[126.3037,33.9527],[126.30312,33.94997],[126.30511,33.94819],[126.31062,33.94704],[126.31225,33.94595],[126.31355,33.94277],[126.31658,33.94101],[126.31713,33.93754],[126.32002,33.93548],[126.32114,33.93024],[126.32649,33.9307],[126.3292,33.93014],[126.33047,33.93388],[126.32815,33.9353],[126.32541,33.93503],[126.32363,33.93882],[126.32529,33.94065],[126.32728,33.9449],[126.33441,33.9439],[126.3353,33.94614],[126.34199,33.94657],[126.34273,33.94914],[126.34014,33.95048],[126.33833,33.9526],[126.34252,33.95452],[126.33797,33.95687],[126.33311,33.95603]]],[[[126.31712,33.98921],[126.32042,33.98606],[126.32301,33.98488],[126.32456,33.98563],[126.32293,33.98852],[126.31712,33.98921]]],[[[126.32651,33.91455],[126.32182,33.91485],[126.32385,33.91233],[126.32651,33.91455]]],[[[126.34464,33.90288],[126.34434,33.90625],[126.34294,33.90315],[126.34464,33.90288]]],[[[126.34893,33.98378],[126.3462,33.98459],[126.34584,33.98162],[126.35143,33.98064],[126.35297,33.98295],[126.34893,33.98378]]],[[[126.33338,34.0127],[126.33271,34.01135],[126.33425,34.00868],[126.33866,34.00876],[126.34228,34.00788],[126.3459,34.00573],[126.34758,34.00358],[126.35114,34.00482],[126.35265,34.00685],[126.34468,34.01065],[126.33851,34.01121],[126.33338,34.0127]]],[[[126.63526,33.92116],[126.63859,33.91906],[126.64235,33.92026],[126.64171,33.92166],[126.63526,33.92116]]]]}},{"type":"Feature","properties":{"name":"제주도서부","note":"근사: 제주시서부 ∪ 서귀포시서부","source":"approx_union_2026-08-24"},"geometry":{"type":"MultiPolygon","coordinates":[[[[126.14536,33.31015],[126.1501,33.30979],[126.15059,33.31137],[126.15357,33.31129],[126.15194,33.31325],[126.14772,33.31331],[126.14536,33.31015]]],[[[126.16055,33.29262],[126.16116,33.29218],[126.16219,33.28959],[126.16227,33.28513],[126.16609,33.28427],[126.16873963813354,33.28285868071925],[126.16828,33.28249],[126.1694,33.27882],[126.16893,33.27758],[126.16953,33.27646],[126.16899,33.27502],[126.17889,33.26796],[126.18013,33.26614],[126.18047,33.26215],[126.18225,33.25988],[126.18588,33.25753],[126.18722,33.25585],[126.19256,33.25376],[126.19456,33.25068],[126.19803,33.24977],[126.20202,33.24556],[126.20762,33.2444],[126.21255,33.24173],[126.21542,33.24305],[126.21931,33.24292],[126.22276,33.24001],[126.22736,33.23944],[126.22858,33.23573],[126.23373,33.23478],[126.23722,33.22776],[126.2404,33.22382],[126.23983,33.22223],[126.24539,33.2196],[126.24535,33.21775],[126.25088,33.21642],[126.25174,33.21447],[126.25654,33.20945],[126.25943,33.20946],[126.26114,33.21092],[126.26323,33.20942],[126.26461,33.20518],[126.26102,33.19979],[126.26511,33.19551],[126.2667,33.1961],[126.26881,33.19449],[126.27215,33.19407],[126.27699,33.19646],[126.27868,33.19838],[126.28226,33.20012],[126.28503,33.20053],[126.2866,33.19671],[126.29095,33.19529],[126.29481,33.19709],[126.29308,33.20276],[126.29064,33.2037],[126.29146,33.2059],[126.29194,33.20701],[126.29272,33.21181],[126.2948,33.21325],[126.29517,33.2162],[126.29161,33.2182],[126.29017,33.22013],[126.29049,33.22329],[126.28973,33.22602],[126.28435,33.23183],[126.28543,33.23509],[126.285,33.23936],[126.29,33.24397],[126.29045,33.24647],[126.2935,33.25054],[126.29413,33.25621],[126.29558,33.25673],[126.29566,33.26211],[126.2968,33.2631],[126.29497,33.2661],[126.29894,33.27065],[126.30465,33.27511],[126.30203,33.28052],[126.29598,33.28349],[126.29391,33.28578],[126.29309,33.29316],[126.29365,33.29606],[126.29007,33.29756],[126.28873,33.29918],[126.28341,33.3014],[126.28208331499312,33.3031689133425],[126.28247,33.3034],[126.28635,33.30432],[126.28737,33.30709],[126.29241,33.31049],[126.29397,33.31513],[126.29151,33.31593],[126.29053,33.31836],[126.29049,33.32323],[126.2924,33.32567],[126.29141,33.32891],[126.29136,33.33459],[126.2894,33.33864],[126.28936,33.34351],[126.29126,33.34757],[126.29122,33.35244],[126.29215,33.35651],[126.29021,33.35812],[126.29019,33.36055],[126.29211,33.36137],[126.29201,33.37436],[126.29101,33.3776],[126.29586,33.376],[126.29777,33.37926],[126.29871,33.38251],[126.30064,33.38333],[126.30061,33.38658],[126.30352,33.38659],[126.30735,33.39067],[126.31219,33.3907],[126.31217,33.39313],[126.31367,33.39497],[126.30984,33.39657],[126.30856,33.40717],[126.30642,33.40802],[126.30615,33.41085],[126.30355,33.41324],[126.30213,33.41686],[126.30253,33.41985],[126.30355,33.42757],[126.30151,33.42937],[126.29995,33.43288],[126.30116,33.43659],[126.29881,33.43992],[126.29944,33.4458],[126.2972,33.44667],[126.29439,33.44543],[126.29306,33.44492],[126.29106,33.44409],[126.29085,33.44408],[126.2891,33.44301],[126.28481,33.44485],[126.28393,33.44278],[126.27974,33.44224],[126.2789,33.44299],[126.27833,33.44304],[126.27797,33.44387],[126.27725,33.44104],[126.2732,33.43575],[126.27219,33.43536],[126.26908,33.43611],[126.26417,33.43599],[126.26299,33.43529],[126.2614,33.4342],[126.26348,33.43093],[126.26363,33.42455],[126.26212,33.42253],[126.25983,33.42504],[126.25856,33.42405],[126.26035,33.42323],[126.25906,33.42262],[126.26123,33.42273],[126.26156,33.42241],[126.26124,33.42159],[126.26169,33.42021],[126.26219,33.41863],[126.26224,33.41845],[126.26003,33.41679],[126.25584,33.41267],[126.25381,33.41356],[126.25384,33.41258],[126.2573,33.41091],[126.25856,33.40916],[126.25442,33.40815],[126.25354,33.40892],[126.25202,33.40846],[126.25163,33.408],[126.25089,33.40233],[126.24265,33.39835],[126.24191,33.39536],[126.23662,33.39512],[126.2347,33.39307],[126.23557,33.39152],[126.23476,33.39061],[126.23472,33.38949],[126.22967,33.38949],[126.22462,33.38969],[126.22195,33.391],[126.22213,33.3878],[126.21911,33.38555],[126.21854,33.38407],[126.2157,33.38345],[126.21465,33.38054],[126.2165,33.37889],[126.21387,33.37736],[126.21367,33.37556],[126.20973,33.37441],[126.20582,33.37217],[126.20572,33.36905],[126.20319,33.36783],[126.20097,33.36649],[126.19965,33.36554],[126.20042,33.36695],[126.19957,33.36599],[126.19706,33.36667],[126.19529,33.36497],[126.19603,33.36391],[126.19239,33.36323],[126.18979,33.36267],[126.18723,33.36225],[126.18742,33.35861],[126.18391,33.35856],[126.18058,33.3573],[126.18208,33.35716],[126.18061,33.35665],[126.18138,33.35263],[126.17938,33.3519],[126.17858,33.34907],[126.17985,33.34764],[126.18032,33.34657],[126.17895,33.34604],[126.17565,33.34479],[126.17465,33.34317],[126.17213,33.34321],[126.16958,33.34411],[126.17101,33.3436],[126.16725,33.33984],[126.16579,33.3375],[126.16328,33.33716],[126.16261,33.33551],[126.16317,33.33413],[126.16236,33.33401],[126.16292,33.33275],[126.16556,33.3314],[126.16214,33.32955],[126.16329,33.32763],[126.16248,33.3244],[126.1652,33.3233],[126.16839,33.31666],[126.1666,33.31539],[126.16549,33.31012],[126.16322,33.30765],[126.1674,33.30021],[126.16696,33.29787],[126.16263,33.29542],[126.16055,33.29262]],[[126.17097,33.28838],[126.17317,33.28894],[126.17123811325638,33.28768534292665],[126.17097,33.28838]],[[126.2387,33.27638],[126.24439010614346,33.27311894757157],[126.24444,33.27296],[126.2387,33.27638]],[[126.26941874619068,33.296857583804965],[126.27039,33.29747],[126.27237555640653,33.29758783717546],[126.26941874619068,33.296857583804965]],[[126.2762607758583,33.29854738289963],[126.27796614881113,33.29914570324143],[126.27781,33.29893],[126.2762607758583,33.29854738289963]]],[[[126.22218,33.41795],[126.22305,33.41678],[126.22287,33.4153],[126.22604,33.41698],[126.22347,33.41863],[126.22446,33.42102],[126.2233,33.42094],[126.22218,33.41795]]],[[[126.22251,33.40583],[126.22528,33.40425],[126.2294,33.40487],[126.2319,33.40752],[126.23215,33.41003],[126.22794,33.41244],[126.22312,33.41199],[126.22251,33.40583]]],[[[126.25698,33.42164],[126.25776,33.41748],[126.25773,33.4171],[126.25884,33.42027],[126.25794,33.42084],[126.25875,33.42248],[126.25698,33.42164]]],[[[126.25875,33.42248],[126.25906,33.42262],[126.25882,33.42261],[126.25875,33.42248]]],[[[126.26242,33.16861],[126.2677,33.16637],[126.27021,33.16202],[126.27234,33.16187],[126.27228,33.16524],[126.27718,33.16767],[126.27976,33.16746],[126.2786,33.1706],[126.27582,33.17287],[126.27484,33.17476],[126.2715,33.1761],[126.27076,33.17629],[126.26918,33.17421],[126.26401,33.17112],[126.26242,33.16861]]],[[[126.26475,33.11796],[126.26632,33.11293],[126.26944,33.11332],[126.2704,33.11654],[126.26894,33.12416],[126.268,33.12426],[126.26475,33.11796]]],[[[126.29101,33.44504],[126.29301,33.44721],[126.29118,33.44726],[126.29101,33.44504]]],[[[126.3047,33.32574],[126.30497,33.32574],[126.30497,33.32594],[126.3047,33.32574]]],[[[126.30496,33.32655],[126.30497,33.32594],[126.30582,33.32656],[126.30496,33.32655]]],[[[126.31462,33.32697],[126.31945,33.32745],[126.31462,33.32742],[126.31462,33.32697]]],[[[126.32896,33.33237],[126.32908,33.33237],[126.32908,33.3325],[126.32896,33.33237]]],[[[126.33484,33.33808],[126.33485,33.33655],[126.33516,33.33752],[126.33484,33.33808]]],[[[126.35994,33.34184],[126.36284,33.34228],[126.35994,33.34227],[126.35994,33.34184]]]]}},{"type":"Feature","properties":{"name":"제주도동부","note":"근사: 제주시동부 ∪ 서귀포시동부","source":"approx_union_2026-08-24"},"geometry":{"type":"MultiPolygon","coordinates":[[[[126.65333,33.39689],[126.6546,33.39456],[126.65459,33.39862],[126.65652,33.39862],[126.65652,33.39943],[126.65749,33.39979],[126.65459,33.39898],[126.65333,33.39689]]],[[[126.67006,33.40093],[126.67027,33.40109],[126.67006,33.40109],[126.67006,33.40093]]],[[[126.67488,33.40402],[126.67541,33.40435],[126.67488,33.40435],[126.67488,33.40402]]],[[[126.68164,33.40898],[126.68221,33.40924],[126.68164,33.40924],[126.68164,33.40898]]],[[[126.68453,33.41075],[126.68467,33.41087],[126.68453,33.41087],[126.68453,33.41075]]],[[[126.68467,33.41087],[126.6855,33.41087],[126.6855,33.41159],[126.68467,33.41087]]],[[[126.6855,33.41159],[126.6856,33.41168],[126.6855,33.41168],[126.6855,33.41159]]],[[[126.70461,33.54806],[126.70591,33.54688],[126.70669,33.54319],[126.70548,33.54024],[126.70665,33.53722],[126.70627,33.53505],[126.71309,33.52872],[126.71373,33.52542],[126.72061,33.51874],[126.72571,33.51234],[126.73449,33.50656],[126.73304,33.49537],[126.73459,33.49537],[126.73556,33.49375],[126.75009,33.49297],[126.7501,33.48892],[126.75204,33.48811],[126.754,33.48243],[126.7569,33.48406],[126.75786,33.4865],[126.76173,33.4865],[126.76271,33.48407],[126.76465,33.48326],[126.76659,33.48083],[126.76853,33.48003],[126.77337,33.48003],[126.77531,33.4776],[126.77532,33.47436],[126.77339,33.47192],[126.7763,33.46949],[126.78114,33.46869],[126.78405,33.4695],[126.78792,33.46951],[126.78889,33.46789],[126.79373,33.4679],[126.7976,33.46872],[126.79954,33.46791],[126.79955,33.46466],[126.8044,33.46224],[126.80827,33.46143],[126.81118,33.459],[126.81989,33.45901],[126.82183,33.45739],[126.82184,33.45496],[126.8199,33.45414],[126.81894,33.45171],[126.81895,33.44772],[126.82212,33.44671],[126.81821,33.44783],[126.81798,33.44603],[126.81799,33.44197],[126.82186,33.44116],[126.82381,33.43711],[126.82381,33.43468],[126.81607,33.43466],[126.81608,33.43142],[126.81414,33.4306],[126.81415,33.42817],[126.81125,33.42573],[126.80932,33.42248],[126.79481,33.42246],[126.7919,33.42408],[126.79094,33.42164],[126.78997,33.42002],[126.7861,33.42082],[126.78321,33.41595],[126.7803,33.41757],[126.77741,33.41594],[126.7716,33.41593],[126.7687,33.4143],[126.76872,33.40862],[126.76776,33.40618],[126.76873,33.40456],[126.7726,33.40376],[126.7755,33.40538],[126.77647,33.40376],[126.78228,33.40215],[126.78518,33.40053],[126.78616,33.39648],[126.78423,33.39404],[126.77843,33.39403],[126.77554,33.38997],[126.7707,33.38915],[126.76877,33.38671],[126.76878,33.38346],[126.76492,33.38183],[126.75815,33.38182],[126.75525,33.38019],[126.7543,33.37532],[126.7485,33.37287],[126.74851,33.37125],[126.75141,33.36963],[126.75143,33.36477],[126.75046,33.36395],[126.74562,33.36475],[126.74465,33.36638],[126.74272,33.36556],[126.74176,33.36312],[126.73789,33.36393],[126.73732,33.35988],[126.74136,33.35696],[126.74238,33.35301],[126.74542,33.35064],[126.74726,33.35062],[126.74952,33.34799],[126.75184,33.34209],[126.75608,33.33987],[126.75639,33.33726],[126.76001,33.33162],[126.75946,33.32785],[126.75739,33.32705],[126.76027,33.32386],[126.76163,33.31801],[126.76545,33.31715],[126.76547,33.31558],[126.7699,33.31079],[126.77398,33.30975],[126.77649,33.30593],[126.7812,33.30688],[126.78184,33.30656],[126.78332,33.30568],[126.78647,33.306],[126.78751,33.30386],[126.78908,33.30351],[126.79057,33.30379],[126.79208,33.30273],[126.79396,33.30473],[126.79838,33.30246],[126.80087,33.30279],[126.80326,33.30436],[126.80608,33.30387],[126.80776,33.30182],[126.81152,33.30342],[126.8115,33.30543],[126.81465,33.30561],[126.8162,33.30764],[126.81986,33.30754],[126.82192,33.30528],[126.82993,33.30633],[126.83378,33.30885],[126.83491,33.30872],[126.83509,33.30897],[126.8405,33.31584],[126.84192,33.31587],[126.84394,33.31926],[126.84856,33.32141],[126.84974,33.32575],[126.8448,33.3255],[126.8442,33.32692],[126.84319,33.32863],[126.84405,33.33284],[126.84736,33.33383],[126.84776,33.33244],[126.84775,33.33544],[126.84953,33.3353],[126.85226,33.33724],[126.85276,33.33828],[126.85658,33.33806],[126.85737,33.34292],[126.8591,33.34342],[126.85975,33.34701],[126.86313,33.34768],[126.86554,33.3513],[126.86846,33.35342],[126.8693,33.35547],[126.86786,33.36084],[126.86969,33.36177],[126.86743,33.3638],[126.8695,33.365],[126.86918,33.36537],[126.86953,33.36511],[126.87056,33.36566],[126.87369,33.36813],[126.87321,33.37027],[126.87186,33.37154],[126.87512,33.37315],[126.8765,33.37513],[126.8816,33.37976],[126.88181,33.3826],[126.88268,33.38221],[126.88319,33.38364],[126.88655,33.38345],[126.89284,33.38775],[126.89781,33.38796],[126.90217,33.3903],[126.90487,33.39012],[126.9065,33.39124],[126.90749,33.39398],[126.90654,33.39601],[126.90783,33.39779],[126.90303,33.40268],[126.90873,33.40654],[126.9087,33.40923],[126.91131,33.41005],[126.91012,33.41176],[126.91174,33.41417],[126.9114,33.41915],[126.91457,33.42076],[126.91426,33.42396],[126.91718,33.42639],[126.91632,33.43317],[126.92014,33.43524],[126.92389,33.43428],[126.92555,33.42986],[126.92292,33.42873],[126.92256,33.42656],[126.92938,33.42259],[126.9311,33.42359],[126.93411,33.428],[126.9365,33.42917],[126.93149,33.43355],[126.9284,33.4351],[126.925,33.43576],[126.92218,33.44016],[126.92278,33.44077],[126.92207,33.44528],[126.92321,33.4464],[126.92314,33.44983],[126.92552,33.45174],[126.93013,33.45595],[126.92847,33.45634],[126.93162,33.45985],[126.93463,33.46078],[126.93971,33.45586],[126.9444,33.45532],[126.94533,33.45961],[126.94324,33.46105],[126.93939,33.46168],[126.93821,33.46462],[126.93655,33.46418],[126.93718,33.46856],[126.93501,33.47105],[126.93563,33.47349],[126.92888,33.47352],[126.92971,33.47195],[126.92782,33.46869],[126.92861,33.46766],[126.93185,33.4645],[126.93041,33.4626],[126.92712,33.4606],[126.92852,33.45813],[126.92389,33.45555],[126.92267,33.45874],[126.92145,33.45944],[126.92158,33.46238],[126.92215,33.4627],[126.92095,33.46376],[126.92079,33.4647],[126.92487,33.47011],[126.925,33.47214],[126.92045,33.46942],[126.91722,33.4721],[126.91365,33.47238],[126.9116,33.47391],[126.90954,33.47981],[126.90787,33.47877],[126.90495,33.47902],[126.90223,33.48132],[126.90191,33.48252],[126.9023,33.48594],[126.90513,33.48866],[126.90745,33.48724],[126.91097,33.48847],[126.91068,33.48975],[126.90936,33.49521],[126.91042,33.4963],[126.91098,33.49649],[126.91257,33.49769],[126.91279,33.49784],[126.91352,33.49818],[126.91187,33.4983],[126.91347,33.50138],[126.9129,33.50229],[126.91331,33.50333],[126.91307,33.50727],[126.90667,33.51099],[126.89963,33.50969],[126.8988,33.51205],[126.89929,33.51366],[126.90219,33.51433],[126.90235,33.51547],[126.902,33.51581],[126.90199,33.51513],[126.90112,33.51576],[126.90121,33.51819],[126.90432,33.51964],[126.90597,33.51957],[126.90478,33.52063],[126.90203,33.5227],[126.89984,33.52215],[126.89865,33.52494],[126.89626,33.52422],[126.8921,33.52693],[126.89106,33.52845],[126.8885,33.52818],[126.88374,33.52673],[126.88397,33.5281],[126.88068,33.52931],[126.88042,33.52978],[126.87847,33.52902],[126.87418,33.5301],[126.87109,33.53003],[126.87097,33.53083],[126.86527,33.52891],[126.8653,33.52758],[126.86401,33.52524],[126.85812,33.52534],[126.85847,33.52625],[126.85677,33.52713],[126.85708,33.5292],[126.8554,33.52937],[126.85459,33.52972],[126.85099,33.53019],[126.85125,33.53299],[126.84724,33.53258],[126.84376,33.53434],[126.84089,33.53357],[126.8412,33.53696],[126.84125,33.53754],[126.83839,33.53718],[126.83645,33.53936],[126.83457,33.54081],[126.83343,33.54042],[126.83148,33.54243],[126.82932,33.5439],[126.82942,33.54572],[126.82807,33.54765],[126.82942,33.54988],[126.8296,33.55182],[126.82554,33.55437],[126.8262,33.55795],[126.82539,33.55935],[126.82475,33.55851],[126.81984,33.56087],[126.81545,33.56085],[126.8133,33.56155],[126.81387,33.55996],[126.80534,33.55662],[126.80264,33.55823],[126.80034,33.55564],[126.7981,33.5553],[126.79566,33.55652],[126.79368,33.55968],[126.7912,33.55979],[126.78951,33.56147],[126.78401,33.56218],[126.78424,33.56519],[126.78169,33.5642],[126.77988,33.565],[126.77904,33.56426],[126.77651,33.56395],[126.7746,33.56536],[126.76869,33.56443],[126.76666,33.56558],[126.7675,33.56537],[126.76508,33.56602],[126.76343,33.56482],[126.76313,33.5649],[126.76215,33.56435],[126.76228,33.56107],[126.7601,33.55906],[126.75917,33.55879],[126.7588,33.55747],[126.75814,33.55717],[126.75554,33.55744],[126.7573,33.55766],[126.75505,33.55878],[126.75299,33.55946],[126.75056,33.55828],[126.74923,33.55878],[126.74635,33.55942],[126.74344,33.55865],[126.74024,33.5602],[126.74195,33.55693],[126.74395,33.55736],[126.73815,33.55475],[126.73684,33.55699],[126.73829,33.5582],[126.73696,33.55848],[126.7376,33.56054],[126.73593,33.55868],[126.73326,33.55863],[126.72998,33.56063],[126.72966,33.56255],[126.72991,33.56041],[126.72795,33.55987],[126.72765,33.5596],[126.72596,33.55806],[126.72065,33.55759],[126.71851,33.55635],[126.71692,33.55484],[126.71511,33.55559],[126.71439,33.5558],[126.71192,33.55416],[126.70754,33.5541],[126.70566,33.55327],[126.70461,33.54806]],[[126.79195,33.40541],[126.79387,33.40785],[126.79581,33.40867],[126.80065,33.40867],[126.80162,33.40543],[126.80066,33.40299],[126.79776,33.40137],[126.79389,33.40136],[126.79292,33.40298],[126.79195,33.40541]],[[126.79268,33.50198],[126.79365,33.50441],[126.79655,33.50442],[126.79656,33.50117],[126.79268,33.50198]],[[126.7966,33.48332],[126.80047,33.48414],[126.80047,33.48333],[126.80241,33.48252],[126.80145,33.47927],[126.79661,33.48089],[126.7966,33.48332]],[[126.81502,33.47442],[126.81598,33.47686],[126.81597,33.4801],[126.81791,33.48092],[126.82372,33.48093],[126.82469,33.48012],[126.8247,33.47363],[126.82277,33.47281],[126.81793,33.47362],[126.81502,33.47442]],[[126.82957,33.45984],[126.83344,33.46065],[126.83248,33.45741],[126.82958,33.4574],[126.82957,33.45984]]],[[[126.72381,33.42394],[126.7261,33.42395],[126.7261,33.42436],[126.72381,33.42394]]],[[[126.74934,33.41913],[126.75127,33.41913],[126.75127,33.4196],[126.74934,33.41913]]],[[[126.76384,33.42291],[126.76388,33.42292],[126.76432,33.4231],[126.76384,33.42322],[126.76384,33.42291]]],[[[126.77543,33.4304],[126.77558,33.43054],[126.77543,33.43054],[126.77543,33.4304]]],[[[126.78447,33.43624],[126.7851,33.43624],[126.7851,33.43694],[126.78447,33.43624]]],[[[126.78799,33.44096],[126.78821,33.44111],[126.78799,33.44111],[126.78799,33.44096]]],[[[126.79767,33.4395],[126.80057,33.43951],[126.80057,33.44004],[126.79767,33.4395]]],[[[126.9221,33.46018],[126.92299,33.46072],[126.92267,33.46106],[126.9221,33.46018]]],[[[126.92736,33.47697],[126.93397,33.47689],[126.92745,33.47713],[126.92736,33.47697]]],[[[126.94091,33.50659],[126.94152,33.50319],[126.94303,33.50249],[126.94444,33.49787],[126.94309,33.49498],[126.94732,33.49299],[126.94933,33.49348],[126.95665,33.49071],[126.95922,33.49273],[126.96324,33.48944],[126.96545,33.48942],[126.96777,33.4921],[126.96669,33.49697],[126.96935,33.49652],[126.97045,33.49847],[126.97086,33.5026],[126.96835,33.50292],[126.9677,33.50508],[126.9683,33.50814],[126.96586,33.51065],[126.96412,33.51435],[126.95879,33.51277],[126.95789,33.51402],[126.95909,33.51744],[126.9617,33.51753],[126.96247,33.51935],[126.95885,33.52029],[126.95876,33.52354],[126.95606,33.52474],[126.95458,33.52584],[126.95092,33.52521],[126.9481,33.52307],[126.94802,33.51991],[126.94883,33.51475],[126.94447,33.51319],[126.94285,33.5112],[126.94345,33.50818],[126.94091,33.50659]]]]}},{"type":"Feature","properties":{"name":"제주도북부__pre20221217","note":"근사(~2022-12-16): 제주시북부 ∪ 제주시중산간","source":"approx_union_2026-08-24"},"geometry":{"type":"MultiPolygon","coordinates":[[[[126.28936,33.34351],[126.2894,33.33864],[126.29136,33.33459],[126.29141,33.32891],[126.2924,33.32567],[126.29049,33.32323],[126.29053,33.31836],[126.29151,33.31593],[126.29442,33.31514],[126.2944,33.31757],[126.29537,33.31757],[126.29534,33.32082],[126.29726,33.32245],[126.30113,33.32248],[126.30159,33.32326],[126.30164,33.32329],[126.3016,33.32329],[126.30208,33.3241],[126.30401,33.32412],[126.304,33.32574],[126.30497,33.32574],[126.30497,33.32594],[126.30496,33.32655],[126.30619,33.32656],[126.3069,33.32629],[126.3069,33.32575],[126.31077,33.32578],[126.31076,33.32659],[126.31463,33.32661],[126.31462,33.32742],[126.31945,33.32745],[126.32043,33.32583],[126.32085,33.32583],[126.32333,33.32584],[126.32333,33.32627],[126.32332,33.32747],[126.32525,33.32748],[126.32524,33.3291],[126.32679,33.32998],[126.32716,33.33019],[126.32813,33.33074],[126.32811,33.33236],[126.32896,33.33237],[126.32908,33.33237],[126.33067,33.334],[126.33167,33.334],[126.33197,33.33401],[126.33196,33.33452],[126.33196,33.33482],[126.33388,33.33645],[126.33485,33.33646],[126.33579,33.33971],[126.33965,33.34135],[126.33963,33.34378],[126.34543,33.343],[126.34544,33.34219],[126.34931,33.3414],[126.34932,33.34059],[126.35029,33.34059],[126.35028,33.34141],[126.35125,33.34141],[126.35125,33.3406],[126.35705,33.34063],[126.35705,33.34144],[126.35995,33.34146],[126.35994,33.34227],[126.36284,33.34228],[126.36285,33.34147],[126.36961,33.34151],[126.36961,33.34194],[126.37009,33.34232],[126.37058,33.34232],[126.37056,33.34394],[126.37249,33.34477],[126.37249,33.34558],[126.37442,33.34559],[126.37537,33.34721],[126.37634,33.34722],[126.37635,33.34641],[126.38149,33.34643],[126.38311,33.34644],[126.38312,33.34594],[126.38312,33.34563],[126.38602,33.34564],[126.38603,33.34483],[126.3868,33.34484],[126.38698,33.34484],[126.38989,33.34485],[126.3899,33.34404],[126.39569674861153,33.344556066646575],[126.3957,33.3444],[126.39756174869913,33.34472210185106],[126.39956,33.3449],[126.39954,33.34815],[126.39856,33.34976],[126.39566,33.34975],[126.3947,33.34812],[126.3918,33.34811],[126.39083,33.34973],[126.3908,33.35378],[126.39175,33.35622],[126.38981,33.35702],[126.38979,33.35946],[126.39171,33.36109],[126.39266,33.36353],[126.39555,33.36598],[126.3965,33.36761],[126.39648,33.37166],[126.3955,33.37328],[126.39161,33.3757],[126.38872,33.37406],[126.38388,33.37485],[126.38289,33.3789],[126.38384,33.38134],[126.38576,33.38216],[126.3906,33.38218],[126.39449,33.37977],[126.39835,33.37979],[126.40027,33.38304],[126.40315,33.38549],[126.40313,33.38792],[126.40506,33.38956],[126.40504,33.39199],[126.41082,33.39526],[126.41081,33.3977],[126.4137,33.39933],[126.41369,33.40096],[126.42142,33.4018],[126.42238,33.40343],[126.42624,33.40426],[126.43012,33.40347],[126.43203,33.40753],[126.43201,33.40997],[126.43587,33.4108],[126.43686,33.40756],[126.43978,33.40595],[126.44752,33.40598],[126.45331,33.40763],[126.45427,33.40926],[126.45814,33.40927],[126.46006,33.4109],[126.46005,33.41253],[126.46682,33.41418],[126.46777,33.41581],[126.47551,33.41665],[126.48036,33.41505],[126.48133,33.41343],[126.48616,33.41507],[126.49003,33.41509],[126.49099,33.41672],[126.49388,33.41835],[126.49775,33.41837],[126.49871,33.41999],[126.50451,33.42083],[126.50646,33.41921],[126.51323,33.41924],[126.51808,33.41764],[126.52388,33.41766],[126.52581,33.41848],[126.52774,33.42092],[126.53548,33.42095],[126.53548,33.42014],[126.54903,33.42019],[126.55192,33.42182],[126.55579,33.42183],[126.55772,33.42346],[126.56546,33.42349],[126.56546,33.4243],[126.57223,33.42433],[126.5761,33.42515],[126.57706,33.42678],[126.58867,33.42682],[126.59255,33.42602],[126.59351,33.42764],[126.5993,33.4301],[126.61188,33.43095],[126.61477,33.43339],[126.61864,33.4334],[126.61866,33.43016],[126.62252,33.43098],[126.62256,33.42205],[126.62063,33.42205],[126.62161,33.41881],[126.62548,33.41882],[126.62453,33.41557],[126.62937,33.41477],[126.63035,33.41072],[126.63423,33.40992],[126.63617,33.40749],[126.64101,33.40588],[126.64393,33.40345],[126.64394,33.3994],[126.64685,33.39941],[126.64781,33.40103],[126.65264,33.40104],[126.65264,33.40267],[126.65651,33.40187],[126.65748,33.40025],[126.65942,33.40025],[126.65941,33.40187],[126.66618,33.40189],[126.66667,33.40108],[126.66669,33.40106],[126.66716,33.40027],[126.66823,33.40028],[126.67006,33.40028],[126.67006,33.40093],[126.67027,33.40109],[126.67006,33.40109],[126.67295,33.40272],[126.67295,33.40353],[126.67489,33.40354],[126.67488,33.40402],[126.67541,33.40435],[126.67488,33.40435],[126.67681,33.40517],[126.67681,33.40531],[126.6777,33.40598],[126.67778,33.40598],[126.67874,33.40761],[126.68068,33.40761],[126.68164,33.40924],[126.68164,33.40898],[126.68221,33.40924],[126.6826,33.40941],[126.6826,33.41005],[126.68454,33.41006],[126.68453,33.41075],[126.68467,33.41087],[126.6855,33.41087],[126.6855,33.41159],[126.6856,33.41168],[126.68647,33.41168],[126.68646,33.41222],[126.68646,33.41249],[126.68743,33.4125],[126.68791,33.41331],[126.6884,33.41331],[126.68839,33.41357],[126.68795,33.41338],[126.68839,33.41412],[126.69226,33.41494],[126.69226,33.41576],[126.69419,33.41576],[126.69467,33.41656],[126.69467,33.41657],[126.69515,33.41739],[126.69667,33.41771],[126.69617,33.41739],[126.6966,33.41763],[126.69679,33.41773],[126.69902,33.41821],[126.69998,33.41983],[126.70482,33.42065],[126.70482,33.42147],[126.71159,33.42229],[126.71159,33.42148],[126.7174,33.4215],[126.71739,33.42231],[126.7203,33.42231],[126.72029,33.42312],[126.7232,33.42313],[126.72319,33.42394],[126.7261,33.42395],[126.72609,33.42476],[126.72803,33.42476],[126.72803,33.42558],[126.72996,33.42558],[126.72996,33.42639],[126.73287,33.42478],[126.73578,33.42316],[126.73578,33.42235],[126.73771,33.42235],[126.73869,33.42073],[126.74159,33.42074],[126.74159,33.41993],[126.74933,33.41994],[126.74934,33.41913],[126.75127,33.41913],[126.75127,33.41994],[126.75707,33.41996],[126.75707,33.42077],[126.75998,33.42077],[126.75997,33.42158],[126.76155,33.42159],[126.76191,33.42175],[126.76191,33.4224],[126.76384,33.4224],[126.76423,33.42306],[126.76432,33.4231],[126.76426,33.42311],[126.76481,33.42403],[126.76867,33.42485],[126.76867,33.42566],[126.7706,33.42647],[126.7706,33.42729],[126.77254,33.4281],[126.77253,33.42891],[126.7735,33.42891],[126.7735,33.42972],[126.77544,33.42973],[126.77543,33.4304],[126.77558,33.43054],[126.7764,33.43054],[126.7764,33.43216],[126.77736,33.43298],[126.77833,33.43298],[126.77929,33.4346],[126.78317,33.43461],[126.78316,33.43542],[126.78411,33.43582],[126.78413,33.43583],[126.7851,33.43624],[126.78509,33.43786],[126.78703,33.43867],[126.78702,33.4403],[126.78799,33.4403],[126.78799,33.44096],[126.78821,33.44111],[126.79573,33.44112],[126.79573,33.44031],[126.79767,33.44032],[126.79767,33.4395],[126.80057,33.43951],[126.80057,33.44032],[126.80154,33.44032],[126.80154,33.44194],[126.8025,33.44195],[126.80347,33.44357],[126.80541,33.44357],[126.8054,33.4438],[126.8054,33.44438],[126.81024,33.4452],[126.81411,33.44521],[126.81508,33.44683],[126.81798,33.44684],[126.81895,33.44765],[126.81894,33.45171],[126.8199,33.45414],[126.82184,33.45496],[126.82183,33.45739],[126.81989,33.45901],[126.81118,33.459],[126.80827,33.46143],[126.8044,33.46224],[126.79955,33.46466],[126.79954,33.46791],[126.7976,33.46872],[126.79373,33.4679],[126.78889,33.46789],[126.78792,33.46951],[126.78405,33.4695],[126.78114,33.46869],[126.7763,33.46949],[126.77339,33.47192],[126.77532,33.47436],[126.77531,33.4776],[126.77337,33.48003],[126.76853,33.48003],[126.76659,33.48083],[126.76465,33.48326],[126.76271,33.48407],[126.76173,33.4865],[126.75786,33.4865],[126.7569,33.48406],[126.754,33.48243],[126.75204,33.48811],[126.7501,33.48892],[126.75009,33.49297],[126.73556,33.49375],[126.73459,33.49537],[126.73304,33.49537],[126.73449,33.50656],[126.72571,33.51234],[126.72061,33.51874],[126.71373,33.52542],[126.71309,33.52872],[126.70627,33.53505],[126.70665,33.53722],[126.70548,33.54024],[126.70669,33.54319],[126.70591,33.54688],[126.70461,33.54806],[126.70566,33.55327],[126.7013,33.55279],[126.69882,33.55332],[126.69526,33.5518],[126.69564,33.55128],[126.69362,33.55041],[126.69086,33.55154],[126.69019,33.5487],[126.68808,33.54847],[126.68447,33.5496],[126.68083,33.55221],[126.67654,33.55191],[126.6738,33.54669],[126.67421,33.54498],[126.6709,33.54458],[126.66827,33.54462],[126.66554,33.5428],[126.66263,33.54492],[126.66154,33.54841],[126.66015,33.54659],[126.65637,33.54825],[126.65604,33.55018],[126.65292,33.55149],[126.65116,33.54897],[126.64809,33.54905],[126.64876,33.55319],[126.64691,33.55495],[126.64386,33.55537],[126.64384,33.55191],[126.64066,33.55058],[126.63858,33.54529],[126.63501,33.5453],[126.63403,33.54352],[126.6344,33.54105],[126.63638,33.53971],[126.63389,33.538],[126.63277,33.53586],[126.63001,33.53791],[126.62548,33.53637],[126.62264,33.53944],[126.62153,33.53812],[126.61846,33.53873],[126.61954,33.53807],[126.61259,33.53827],[126.61191,33.53567],[126.60751,33.53619],[126.60315,33.535],[126.60051,33.5369],[126.59751,33.53774],[126.59102,33.5335],[126.5878,33.52761],[126.58502,33.52545],[126.57989,33.52463],[126.57446,33.52795],[126.57366,33.52529],[126.57071,33.5259],[126.56839,33.52741],[126.56516,33.52495],[126.56152,33.52774],[126.55995,33.52584],[126.55896,33.52257],[126.55522,33.52114],[126.5521,33.52178],[126.55081,33.5205],[126.54786,33.52237],[126.55089,33.52264],[126.55344,33.52422],[126.54622,33.52451],[126.54598,33.52788],[126.54318,33.52757],[126.54284,33.52289],[126.53751,33.52135],[126.53356,33.51869],[126.53099,33.51723],[126.52795,33.51814],[126.51751,33.51947],[126.51627,33.51712],[126.51431,33.51579],[126.50084,33.51749],[126.49873,33.52031],[126.49443,33.52062],[126.48967,33.51963],[126.48578,33.51761],[126.4843,33.51371],[126.48311,33.5125],[126.48284,33.51074],[126.47797,33.50915],[126.47345,33.50986],[126.46991,33.50887],[126.46812,33.50989],[126.4639,33.50671],[126.46282,33.50304],[126.46005,33.50422],[126.45755,33.50354],[126.45358,33.50443],[126.45186,33.50183],[126.45432,33.50068],[126.45358,33.49838],[126.4502,33.49736],[126.445,33.49881],[126.44135,33.49761],[126.44069,33.49616],[126.43776,33.49606],[126.43043,33.49396],[126.42745,33.49488],[126.42356,33.49492],[126.42172,33.49321],[126.41997,33.49245],[126.42096,33.4908],[126.41673,33.49019],[126.41137,33.49056],[126.40802,33.48825],[126.40862,33.48619],[126.40486,33.48476],[126.40207,33.48595],[126.40065,33.48337],[126.39448,33.48415],[126.39395,33.48643],[126.39171,33.48717],[126.3913,33.48943],[126.38551,33.48936],[126.38263,33.48765],[126.38011,33.48413],[126.37744,33.48438],[126.36888,33.47839],[126.35966,33.4798],[126.35435,33.4782],[126.35169,33.4749],[126.35146,33.47297],[126.34691,33.47411],[126.34596,33.47226],[126.34045,33.4707],[126.33901,33.46787],[126.33282,33.46756],[126.33177,33.46964],[126.32654,33.46713],[126.32141,33.46659],[126.32321,33.46866],[126.32052,33.47204],[126.32042,33.46761],[126.31672,33.46837],[126.31622,33.46957],[126.3124,33.46961],[126.30776,33.46588],[126.30845,33.46466],[126.31023,33.46202],[126.31046,33.46021],[126.30797,33.45761],[126.30737,33.45475],[126.30593,33.45429],[126.30556,33.45423],[126.30619,33.45252],[126.30253,33.45042],[126.29985,33.44729],[126.29881,33.43992],[126.30116,33.43659],[126.29995,33.43288],[126.30151,33.42937],[126.30355,33.42757],[126.30253,33.41985],[126.30221,33.41659],[126.30355,33.41324],[126.30615,33.41085],[126.30642,33.40802],[126.30856,33.40717],[126.30984,33.39657],[126.31367,33.39497],[126.31448,33.39336],[126.31584401752612,33.39314900353893],[126.31217,33.39313],[126.31219,33.3907],[126.30735,33.39067],[126.30352,33.38659],[126.30061,33.38658],[126.30064,33.38333],[126.29871,33.38251],[126.29777,33.37926],[126.29586,33.376],[126.29101,33.3776],[126.29201,33.37436],[126.29211,33.36137],[126.29019,33.36055],[126.29021,33.35812],[126.29215,33.35651],[126.29122,33.35244],[126.29126,33.34757],[126.28936,33.34351]],[[126.62252,33.43098],[126.62251,33.43423],[126.62541,33.43586],[126.62928,33.43587],[126.63026,33.43344],[126.63316,33.43345],[126.63414,33.4302],[126.63027,33.42938],[126.6293,33.431],[126.62252,33.43098]],[[126.65637,33.54825],[126.65647,33.54764],[126.65582,33.54849],[126.65637,33.54825]],[[126.37722,33.36021],[126.38108,33.36023],[126.3811,33.35779],[126.37723,33.35777],[126.37722,33.36021]],[[126.37921,33.3521],[126.38209,33.35455],[126.38308,33.35131],[126.37922,33.34967],[126.37921,33.3521]],[[126.62615,33.48698],[126.62615,33.48779],[126.62711,33.48942],[126.62904,33.49186],[126.62615,33.48698]]],[[[126.54385,33.52821],[126.54602,33.52831],[126.54649,33.52873],[126.54385,33.52821]]],[[[126.65652,33.39943],[126.65749,33.39943],[126.65748,33.40025],[126.65652,33.40024],[126.65652,33.39943]]],[[[126.72319,33.42394],[126.7232,33.42362],[126.72381,33.42394],[126.72319,33.42394]]],[[[126.79268,33.50198],[126.79656,33.50117],[126.79655,33.50442],[126.79365,33.50441],[126.79268,33.50198]]],[[[126.7966,33.48332],[126.79661,33.48089],[126.80145,33.47927],[126.80241,33.48252],[126.80144,33.48252],[126.80047,33.48414],[126.7966,33.48332]]],[[[126.81502,33.47442],[126.81793,33.47362],[126.82277,33.47281],[126.8247,33.47363],[126.82469,33.48012],[126.82372,33.48093],[126.81791,33.48092],[126.81597,33.4801],[126.81598,33.47686],[126.81502,33.47442]]],[[[126.82957,33.45984],[126.82958,33.4574],[126.83248,33.45741],[126.83344,33.46065],[126.82957,33.45984]]]]}},{"type":"Feature","properties":{"name":"제주도북부__from20221217","note":"근사(2022-12-17~): 제주시북부 그대로","source":"approx_union_2026-08-24"},"geometry":{"type":"MultiPolygon","coordinates":[[[[126.39569,33.34488],[126.39859,33.3449],[126.3957,33.3444],[126.39569,33.34488]]],[[[126.72803,33.42498],[126.72803,33.42476],[126.72761,33.42476],[126.72803,33.42498]]],[[[126.70288,33.42037],[126.70288,33.42065],[126.70394,33.42065],[126.70288,33.42037]]],[[[126.72319,33.42394],[126.72381,33.42394],[126.7232,33.42362],[126.72319,33.42394]]],[[[126.54602,33.52831],[126.54385,33.52821],[126.54649,33.52873],[126.54602,33.52831]]],[[[126.65637,33.54825],[126.66015,33.54659],[126.66154,33.54841],[126.66263,33.54492],[126.66554,33.5428],[126.66827,33.54462],[126.6709,33.54458],[126.67421,33.54498],[126.6738,33.54669],[126.67654,33.55191],[126.68083,33.55221],[126.68447,33.5496],[126.68808,33.54847],[126.69019,33.5487],[126.69086,33.55154],[126.69362,33.55041],[126.69564,33.55128],[126.69526,33.5518],[126.69882,33.55332],[126.7013,33.55279],[126.70566,33.55327],[126.70461,33.54806],[126.70591,33.54688],[126.70669,33.54319],[126.70548,33.54024],[126.70665,33.53722],[126.70627,33.53505],[126.71309,33.52872],[126.71373,33.52542],[126.72061,33.51874],[126.72571,33.51234],[126.73449,33.50656],[126.73304,33.49537],[126.73168,33.49537],[126.72878,33.49536],[126.72782,33.49293],[126.72394,33.49373],[126.71522,33.49371],[126.71425,33.49533],[126.71134,33.49695],[126.7065,33.49693],[126.70457,33.49287],[126.7007,33.49286],[126.69877,33.49042],[126.69587,33.48879],[126.69297,33.48879],[126.692,33.48716],[126.6891,33.48715],[126.6862,33.48552],[126.68039,33.48632],[126.67263,33.48955],[126.66972,33.49035],[126.66294,33.49033],[126.65906,33.49194],[126.6552,33.4895],[126.65035,33.48949],[126.64552,33.48866],[126.64454,33.49028],[126.64163,33.49108],[126.63969,33.49189],[126.63679,33.49107],[126.63098,33.49105],[126.62904,33.49186],[126.62711,33.48942],[126.62615,33.48779],[126.62615,33.48698],[126.62325,33.48616],[126.60776,33.48611],[126.60583,33.48448],[126.6039,33.48285],[126.59905,33.48365],[126.59615,33.48283],[126.59519,33.4812],[126.59229,33.48119],[126.59037,33.47794],[126.58842,33.48037],[126.58164,33.48035],[126.58068,33.47872],[126.57681,33.47871],[126.57779,33.47465],[126.57488,33.47627],[126.57295,33.47626],[126.57102,33.47301],[126.56424,33.4738],[126.56232,33.47135],[126.56039,33.47054],[126.55651,33.47052],[126.55652,33.4689],[126.54974,33.46887],[126.54685,33.46724],[126.5391,33.46721],[126.53524,33.46639],[126.53331,33.46476],[126.52944,33.46393],[126.52073,33.4639],[126.52072,33.46471],[126.51298,33.46468],[126.50912,33.46223],[126.50814,33.46385],[126.49749,33.46381],[126.49845,33.46624],[126.4984,33.47436],[126.49743,33.47517],[126.49356,33.47434],[126.49359,33.46866],[126.48973,33.46702],[126.48974,33.46459],[126.48588,33.46295],[126.48492,33.46132],[126.47815,33.45967],[126.4772,33.45723],[126.47236,33.45802],[126.4714,33.45639],[126.46075,33.45635],[126.45979,33.45472],[126.45592,33.45389],[126.44237,33.45383],[126.43946,33.45544],[126.43559,33.45542],[126.43269,33.4546],[126.42885,33.44971],[126.42692,33.44889],[126.42207,33.44968],[126.42015,33.44805],[126.41919,33.44561],[126.41532,33.44559],[126.41531,33.44722],[126.4124,33.44801],[126.40854,33.44637],[126.40855,33.44475],[126.40178,33.44472],[126.3979,33.44551],[126.39694,33.44388],[126.39406,33.44143],[126.39117,33.4398],[126.38633,33.43977],[126.38345,33.43651],[126.38055,33.43569],[126.37957,33.43731],[126.37474,33.43647],[126.37182,33.43808],[126.36699,33.43724],[126.36508,33.43399],[126.36509,33.43155],[126.36221,33.4291],[126.35834,33.42908],[126.35642,33.42664],[126.35158,33.42743],[126.3516,33.42418],[126.34967,33.42336],[126.35164,33.4185],[126.34682,33.41604],[126.34491,33.4136],[126.34397,33.40953],[126.34107,33.40871],[126.33819,33.40545],[126.33822,33.40139],[126.3363,33.40057],[126.33535,33.39813],[126.32857,33.3989],[126.32763,33.39565],[126.32571,33.39402],[126.32184,33.394],[126.32088,33.39237],[126.31448,33.39336],[126.31367,33.39497],[126.30984,33.39657],[126.30856,33.40717],[126.30642,33.40802],[126.30615,33.41085],[126.30355,33.41324],[126.30221,33.41659],[126.30253,33.41985],[126.30355,33.42757],[126.30151,33.42937],[126.29995,33.43288],[126.30116,33.43659],[126.29881,33.43992],[126.29985,33.44729],[126.30253,33.45042],[126.30619,33.45252],[126.30556,33.45423],[126.30593,33.45429],[126.30737,33.45475],[126.30797,33.45761],[126.31046,33.46021],[126.31023,33.46202],[126.30845,33.46466],[126.30776,33.46588],[126.3124,33.46961],[126.31622,33.46957],[126.31672,33.46837],[126.32042,33.46761],[126.32052,33.47204],[126.32321,33.46866],[126.32141,33.46659],[126.32654,33.46713],[126.33177,33.46964],[126.33282,33.46756],[126.33901,33.46787],[126.34045,33.4707],[126.34596,33.47226],[126.34691,33.47411],[126.35146,33.47297],[126.35169,33.4749],[126.35435,33.4782],[126.35966,33.4798],[126.36888,33.47839],[126.37744,33.48438],[126.38011,33.48413],[126.38263,33.48765],[126.38551,33.48936],[126.3913,33.48943],[126.39171,33.48717],[126.39395,33.48643],[126.39448,33.48415],[126.40065,33.48337],[126.40207,33.48595],[126.40486,33.48476],[126.40862,33.48619],[126.40802,33.48825],[126.41137,33.49056],[126.41673,33.49019],[126.42096,33.4908],[126.41997,33.49245],[126.42172,33.49321],[126.42356,33.49492],[126.42745,33.49488],[126.43043,33.49396],[126.43776,33.49606],[126.44069,33.49616],[126.44135,33.49761],[126.445,33.49881],[126.4502,33.49736],[126.45358,33.49838],[126.45432,33.50068],[126.45186,33.50183],[126.45358,33.50443],[126.45755,33.50354],[126.46005,33.50422],[126.46282,33.50304],[126.4639,33.50671],[126.46812,33.50989],[126.46991,33.50887],[126.47345,33.50986],[126.47797,33.50915],[126.48284,33.51074],[126.48311,33.5125],[126.4843,33.51371],[126.48578,33.51761],[126.48967,33.51963],[126.49443,33.52062],[126.49873,33.52031],[126.50084,33.51749],[126.51431,33.51579],[126.51627,33.51712],[126.51751,33.51947],[126.52795,33.51814],[126.53099,33.51723],[126.53356,33.51869],[126.53751,33.52135],[126.54284,33.52289],[126.54318,33.52757],[126.54598,33.52788],[126.54622,33.52451],[126.55344,33.52422],[126.55089,33.52264],[126.54786,33.52237],[126.55081,33.5205],[126.5521,33.52178],[126.55522,33.52114],[126.55896,33.52257],[126.55995,33.52584],[126.56152,33.52774],[126.56516,33.52495],[126.56839,33.52741],[126.57071,33.5259],[126.57366,33.52529],[126.57446,33.52795],[126.57989,33.52463],[126.58502,33.52545],[126.5878,33.52761],[126.59102,33.5335],[126.59751,33.53774],[126.60051,33.5369],[126.60315,33.535],[126.60751,33.53619],[126.61191,33.53567],[126.61259,33.53827],[126.61954,33.53807],[126.61846,33.53873],[126.62153,33.53812],[126.62264,33.53944],[126.62548,33.53637],[126.63001,33.53791],[126.63277,33.53586],[126.63389,33.538],[126.63638,33.53971],[126.6344,33.54105],[126.63403,33.54352],[126.63501,33.5453],[126.63858,33.54529],[126.64066,33.55058],[126.64384,33.55191],[126.64386,33.55537],[126.64691,33.55495],[126.64876,33.55319],[126.64809,33.54905],[126.65116,33.54897],[126.65292,33.55149],[126.65604,33.55018],[126.65637,33.54825]],[[126.65637,33.54825],[126.65582,33.54849],[126.65647,33.54764],[126.65637,33.54825]],[[126.50905,33.4744],[126.50904,33.47683],[126.50516,33.47763],[126.50614,33.47439],[126.50905,33.4744]]],[[[126.68779,33.41331],[126.68839,33.41357],[126.6884,33.41331],[126.68779,33.41331]]],[[[126.6777,33.40598],[126.67681,33.40531],[126.67681,33.40598],[126.6777,33.40598]]],[[[126.6777,33.40598],[126.67778,33.40604],[126.67778,33.40598],[126.6777,33.40598]]],[[[126.69709,33.41797],[126.69698,33.41784],[126.6966,33.41763],[126.69617,33.41739],[126.69709,33.41797]]]]}},{"type":"Feature","properties":{"name":"제주도남부__pre20221219","note":"근사(~2022-12-18): 서귀포시남부 ∪ 서귀포시중산간","source":"approx_union_2026-08-24"},"geometry":{"type":"MultiPolygon","coordinates":[[[[126.28206,33.3032],[126.28341,33.3014],[126.29348,33.29642],[126.29309,33.29316],[126.29391,33.28578],[126.29598,33.28349],[126.30203,33.28052],[126.30465,33.27511],[126.29894,33.27065],[126.29497,33.2661],[126.2968,33.2631],[126.29566,33.26211],[126.29558,33.25673],[126.29413,33.25621],[126.2935,33.25054],[126.29045,33.24647],[126.29,33.24397],[126.285,33.23936],[126.28543,33.23509],[126.28435,33.23183],[126.28973,33.22602],[126.29049,33.22329],[126.29017,33.22013],[126.29161,33.2182],[126.29655,33.21772],[126.29686,33.2188],[126.29607,33.21931],[126.2979,33.22259],[126.30106,33.22355],[126.30164,33.2262],[126.3045,33.22624],[126.30538,33.22768],[126.30859,33.22759],[126.30972,33.22994],[126.31254,33.23247],[126.31541,33.23159],[126.31527,33.23507],[126.31642,33.23641],[126.32068,33.23877],[126.32538,33.239],[126.32773,33.24079],[126.33065,33.24094],[126.33376,33.23914],[126.33545,33.23481],[126.33888,33.23559],[126.34333,33.23501],[126.34704,33.23616],[126.34992,33.23454],[126.35767,33.23672],[126.36179,33.23598],[126.36324,33.23158],[126.36503,33.22985],[126.36781,33.23152],[126.36891,33.22968],[126.37308,33.22948],[126.37282,33.23103],[126.37678,33.23199],[126.37557,33.23402],[126.37917,33.2311],[126.3796,33.23397],[126.3822,33.23381],[126.3843,33.23238],[126.38658,33.2346],[126.38934,33.23502],[126.39108,33.23725],[126.39488,33.23771],[126.39744,33.24051],[126.40164,33.24105],[126.40334,33.24334],[126.40562,33.2432],[126.40858,33.24455],[126.41319,33.24452],[126.4147,33.24218],[126.41813,33.24362],[126.42408,33.23697],[126.42876,33.23491],[126.43162,33.23521],[126.43406,33.2337],[126.43506,33.23634],[126.4379,33.23697],[126.43845,33.2385],[126.44227,33.23715],[126.44564,33.23839],[126.44993,33.24111],[126.46006,33.23936],[126.46197,33.23747],[126.46357,33.23417],[126.46309,33.23146],[126.46557,33.22897],[126.4684,33.22835],[126.469,33.22612],[126.47126,33.22376],[126.47252,33.22586],[126.47791,33.22765],[126.47953,33.22655],[126.48808,33.22898],[126.49079,33.2303],[126.49392,33.2305],[126.49695,33.23205],[126.49959,33.2317],[126.50219,33.22995],[126.50862,33.22973],[126.51055,33.23043],[126.51371,33.23324],[126.51377,33.23446],[126.5154,33.23712],[126.5184,33.23645],[126.51895,33.23824],[126.5224,33.24001],[126.5262,33.24026],[126.52901,33.23879],[126.53054,33.23942],[126.5339,33.23884],[126.54037,33.24165],[126.54346,33.23864],[126.54485,33.23982],[126.54812,33.23925],[126.55084,33.24127],[126.55483,33.23873],[126.55784,33.23907],[126.55858,33.23631],[126.56215,33.23448],[126.56426,33.23468],[126.563,33.23826],[126.56018,33.23752],[126.55925,33.24099],[126.56406,33.23917],[126.5656,33.23762],[126.56882,33.24085],[126.56882,33.243],[126.57219,33.24437],[126.57458,33.24383],[126.57783,33.24484],[126.58157,33.24255],[126.58457,33.24376],[126.58702,33.24225],[126.58668,33.24106],[126.58753,33.2423],[126.59198,33.24082],[126.59098,33.23939],[126.59428,33.23661],[126.59715,33.23552],[126.59949,33.23427],[126.60239,33.2367],[126.60513,33.23867],[126.60683,33.23753],[126.60739,33.23927],[126.61434,33.23952],[126.61824,33.24129],[126.61977,33.24971],[126.6279,33.25121],[126.62878,33.25431],[126.6329,33.25365],[126.63523,33.25646],[126.6402,33.25701],[126.64032,33.25946],[126.64375,33.26175],[126.64191,33.26442],[126.64391,33.26694],[126.64689,33.26723],[126.64905,33.26866],[126.65288,33.26984],[126.65825,33.26856],[126.66011,33.2709],[126.65819,33.27388],[126.66236,33.27397],[126.66119,33.27118],[126.66413,33.2698],[126.66673,33.27063],[126.66888,33.2712],[126.67108,33.27107],[126.67398,33.26779],[126.67657,33.26796],[126.67865,33.2685],[126.67844,33.27066],[126.68149,33.27091],[126.68334,33.26955],[126.68973,33.2695],[126.6916,33.26988],[126.6995,33.2707],[126.70543,33.2736],[126.71147,33.27444],[126.71332,33.27617],[126.71665,33.27506],[126.71914,33.27705],[126.7228,33.27652],[126.72312,33.27857],[126.72588,33.27935],[126.73152,33.27853],[126.73329,33.28161],[126.73544,33.28125],[126.73984,33.27745],[126.74538,33.2784],[126.7485,33.28131],[126.75129,33.28667],[126.75698,33.28773],[126.76127,33.29173],[126.76554,33.29335],[126.7664,33.29785],[126.76883,33.29996],[126.77313,33.30051],[126.77515,33.30475],[126.77649,33.30593],[126.77398,33.30975],[126.7699,33.31079],[126.76547,33.31558],[126.76545,33.31715],[126.76163,33.31801],[126.76027,33.32386],[126.75739,33.32705],[126.75946,33.32785],[126.76001,33.33162],[126.75639,33.33726],[126.75608,33.33987],[126.75184,33.34209],[126.74928,33.34831],[126.74717,33.3507],[126.74542,33.35064],[126.74238,33.35301],[126.74136,33.35696],[126.73732,33.35988],[126.73765,33.36211],[126.73402,33.36392],[126.73402,33.36554],[126.73595,33.36555],[126.73789,33.36393],[126.74176,33.36312],[126.74465,33.36638],[126.74562,33.36475],[126.75046,33.36395],[126.75143,33.36477],[126.75141,33.36963],[126.74851,33.37125],[126.7485,33.37287],[126.7543,33.37532],[126.75525,33.38019],[126.75815,33.38182],[126.76492,33.38183],[126.76878,33.38346],[126.76877,33.38671],[126.7707,33.38915],[126.77554,33.38997],[126.77843,33.39403],[126.78423,33.39404],[126.78616,33.39648],[126.78518,33.40053],[126.78228,33.40215],[126.77647,33.40376],[126.7755,33.40538],[126.7726,33.40376],[126.76873,33.40456],[126.76776,33.40618],[126.76872,33.40862],[126.7687,33.4143],[126.7716,33.41593],[126.77741,33.41594],[126.7803,33.41757],[126.78321,33.41595],[126.7861,33.42082],[126.78998,33.42002],[126.79094,33.42164],[126.7919,33.42408],[126.79481,33.42246],[126.80932,33.42248],[126.81125,33.42573],[126.81415,33.42817],[126.81414,33.4306],[126.81608,33.43142],[126.81607,33.43466],[126.82381,33.43468],[126.82381,33.43711],[126.82186,33.44116],[126.81799,33.44197],[126.81798,33.44603],[126.81798,33.44684],[126.81508,33.44683],[126.81411,33.44521],[126.81024,33.4452],[126.8054,33.44438],[126.8054,33.4438],[126.80541,33.44357],[126.80347,33.44357],[126.8025,33.44195],[126.80154,33.44194],[126.80154,33.44032],[126.80057,33.44032],[126.80057,33.43951],[126.79767,33.4395],[126.79767,33.44032],[126.79573,33.44031],[126.79573,33.44112],[126.78821,33.44111],[126.78799,33.44111],[126.78799,33.4403],[126.78702,33.4403],[126.78703,33.43867],[126.78509,33.43786],[126.7851,33.43624],[126.78413,33.43583],[126.78413,33.43584],[126.78411,33.43582],[126.78316,33.43542],[126.78317,33.43461],[126.77929,33.4346],[126.77833,33.43298],[126.77736,33.43298],[126.7764,33.43216],[126.7764,33.43054],[126.77543,33.43054],[126.77544,33.42973],[126.7735,33.42972],[126.7735,33.42891],[126.77253,33.42891],[126.77254,33.4281],[126.77157,33.42759],[126.76964,33.42647],[126.76964,33.42566],[126.76867,33.42566],[126.76867,33.42485],[126.76481,33.42403],[126.76426,33.42311],[126.76384,33.42322],[126.76384,33.42291],[126.76388,33.42292],[126.76423,33.42306],[126.76384,33.4224],[126.76191,33.4224],[126.76191,33.42175],[126.76155,33.42159],[126.75997,33.42158],[126.75998,33.42077],[126.75707,33.42077],[126.75707,33.41996],[126.75127,33.41994],[126.75127,33.41913],[126.74934,33.41913],[126.74933,33.41994],[126.74159,33.41993],[126.74159,33.42074],[126.73869,33.42073],[126.73771,33.42235],[126.73578,33.42235],[126.73578,33.42316],[126.73287,33.42478],[126.72996,33.42639],[126.72996,33.42558],[126.72803,33.42558],[126.72803,33.42498],[126.72761,33.42476],[126.72609,33.42476],[126.7261,33.42395],[126.72319,33.42394],[126.7232,33.42313],[126.71739,33.42231],[126.7174,33.4215],[126.71159,33.42148],[126.71159,33.42229],[126.70868,33.42229],[126.70869,33.42148],[126.70482,33.42147],[126.70482,33.42065],[126.70288,33.42065],[126.70289,33.41984],[126.69998,33.41983],[126.69902,33.41821],[126.69679,33.41773],[126.69698,33.41784],[126.69709,33.41797],[126.69667,33.41771],[126.69515,33.41739],[126.69467,33.41657],[126.69467,33.41656],[126.69419,33.41576],[126.69226,33.41576],[126.69226,33.41494],[126.68839,33.41412],[126.68795,33.41338],[126.68779,33.41331],[126.68791,33.41331],[126.68743,33.4125],[126.68646,33.41249],[126.68647,33.41168],[126.6855,33.41168],[126.6855,33.41087],[126.68453,33.41087],[126.68453,33.41075],[126.68454,33.41006],[126.6826,33.41005],[126.6826,33.40941],[126.68221,33.40924],[126.68164,33.40924],[126.68068,33.40761],[126.67874,33.40761],[126.67778,33.40598],[126.67778,33.40604],[126.6777,33.40598],[126.67681,33.40598],[126.67681,33.40517],[126.67488,33.40435],[126.67489,33.40354],[126.67295,33.40353],[126.67295,33.40272],[126.67006,33.40109],[126.67006,33.40028],[126.66823,33.40028],[126.66716,33.40027],[126.66669,33.40106],[126.66667,33.40108],[126.66618,33.40189],[126.65941,33.40187],[126.65942,33.40025],[126.65748,33.40025],[126.65652,33.39862],[126.65459,33.39862],[126.6546,33.39456],[126.65364,33.39293],[126.64494,33.39291],[126.64301,33.39047],[126.64304,33.38479],[126.64014,33.38316],[126.63823,33.37747],[126.63437,33.37584],[126.63341,33.37421],[126.63342,33.37097],[126.62957,33.3669],[126.6296,33.35878],[126.62671,33.35796],[126.62673,33.35309],[126.62576,33.35228],[126.62093,33.35226],[126.61514,33.34981],[126.61418,33.34819],[126.61128,33.34818],[126.60743,33.34411],[126.60744,33.34086],[126.60648,33.33924],[126.60358,33.33923],[126.60263,33.3376],[126.59006,33.33756],[126.5862,33.33511],[126.58524,33.33349],[126.58235,33.33185],[126.58042,33.33104],[126.5785,33.3286],[126.57755,33.32535],[126.57466,33.32371],[126.57275,33.31884],[126.57082,33.31721],[126.56889,33.3172],[126.56214,33.31474],[126.56019,33.31717],[126.55729,33.31716],[126.55537,33.31553],[126.5486,33.31551],[126.54764,33.31469],[126.54766,33.30982],[126.54671,33.3082],[126.54284,33.30818],[126.54091,33.30736],[126.53899,33.30492],[126.52933,33.30408],[126.52741,33.30326],[126.52548,33.30244],[126.52065,33.30161],[126.51873,33.29998],[126.51389,33.29996],[126.50712,33.30155],[126.50423,33.29992],[126.4994,33.2999],[126.49746,33.30152],[126.48972,33.3023],[126.48393,33.30146],[126.48295,33.30308],[126.47715,33.30387],[126.47523,33.30224],[126.47233,33.30222],[126.46748,33.30545],[126.46362,33.30462],[126.45395,33.30458],[126.45395,33.30539],[126.44622,33.30536],[126.4433,33.30778],[126.44232,33.31102],[126.43845,33.31181],[126.43457,33.31342],[126.43359,33.31504],[126.43069,33.31502],[126.42972,33.31664],[126.42681,33.31744],[126.42005,33.31741],[126.41713,33.32064],[126.41711,33.32226],[126.41324,33.32387],[126.40841,33.32303],[126.39875,33.32299],[126.39874,33.3238],[126.39584,33.32378],[126.39292,33.3262],[126.39291,33.32864],[126.39483,33.32946],[126.39772,33.33191],[126.39868,33.33272],[126.39865,33.33678],[126.40058,33.3376],[126.40054,33.34247],[126.39859,33.3449],[126.39569,33.34488],[126.3957,33.34407],[126.3899,33.34404],[126.38989,33.34485],[126.38698,33.34484],[126.3868,33.34484],[126.38603,33.34483],[126.38602,33.34564],[126.38312,33.34563],[126.38311,33.34644],[126.38149,33.34643],[126.37635,33.34641],[126.37634,33.34722],[126.37441,33.3464],[126.37442,33.34613],[126.37442,33.34559],[126.37249,33.34558],[126.37249,33.34526],[126.37171,33.34476],[126.37249,33.34477],[126.37056,33.34394],[126.37058,33.34232],[126.37009,33.34232],[126.36961,33.34194],[126.36961,33.34151],[126.36285,33.34147],[126.36284,33.34228],[126.35994,33.34227],[126.35995,33.34146],[126.35705,33.34144],[126.35705,33.34105],[126.35125,33.3406],[126.35125,33.34141],[126.35028,33.34141],[126.35029,33.34059],[126.34932,33.34059],[126.34931,33.3414],[126.34544,33.34219],[126.34543,33.343],[126.33963,33.34378],[126.33965,33.34135],[126.33579,33.33971],[126.33485,33.33646],[126.33388,33.33645],[126.33196,33.33482],[126.33196,33.33452],[126.33197,33.33401],[126.33167,33.334],[126.33067,33.334],[126.32908,33.33237],[126.32908,33.3325],[126.32896,33.33237],[126.32811,33.33236],[126.32813,33.33074],[126.32716,33.33019],[126.32716,33.33039],[126.32679,33.32998],[126.32524,33.3291],[126.32525,33.32748],[126.32332,33.32747],[126.32333,33.32627],[126.32333,33.32584],[126.32085,33.32583],[126.32043,33.32583],[126.31945,33.32745],[126.31462,33.32742],[126.31463,33.32661],[126.31462,33.32697],[126.31154312269241,33.3265940471457],[126.31076,33.32659],[126.31077,33.32578],[126.30827821935483,33.32576068387097],[126.3069,33.32629],[126.30619,33.32656],[126.30582,33.32656],[126.30496,33.32655],[126.30497,33.32594],[126.3047,33.32574],[126.304,33.32574],[126.30401,33.32412],[126.30208,33.3241],[126.3016,33.32329],[126.30112,33.32329],[126.30112,33.32302],[126.30159,33.32326],[126.30113,33.32248],[126.29726,33.32245],[126.29534,33.32082],[126.29537,33.31757],[126.2944,33.31757],[126.29442,33.31514],[126.29443,33.31432],[126.2954,33.31352],[126.29371,33.31432],[126.29241,33.31049],[126.28737,33.30709],[126.28635,33.30432],[126.28206,33.3032]],[[126.41746,33.27033],[126.42036,33.27035],[126.42131,33.27197],[126.42036,33.27034],[126.41746,33.27033]]],[[[126.38698,33.34484],[126.38883,33.34485],[126.38768,33.34531],[126.38698,33.34484]]],[[[126.51429,33.2185],[126.51565,33.21601],[126.51837,33.21607],[126.51891,33.2184],[126.51565,33.2203],[126.51429,33.2185]]],[[[126.5637,33.22762],[126.56444,33.22533],[126.56839,33.22518],[126.56843,33.22684],[126.5637,33.22762]]],[[[126.59645,33.2288],[126.59963,33.22811],[126.60255,33.22989],[126.59839,33.23216],[126.59663,33.2312],[126.59645,33.2288]]],[[[126.65219,33.22362],[126.65394,33.2225],[126.65642,33.22345],[126.65915,33.22588],[126.65687,33.22715],[126.65262,33.22636],[126.65219,33.22362]]],[[[126.79195,33.40541],[126.79292,33.40298],[126.79389,33.40136],[126.79776,33.40137],[126.80066,33.40299],[126.80162,33.40543],[126.80065,33.40867],[126.79581,33.40867],[126.79387,33.40785],[126.79195,33.40541]]]]}},{"type":"Feature","properties":{"name":"제주도남부__from20221219","note":"근사(2022-12-19~): 서귀포시남부 그대로","source":"approx_union_2026-08-24"},"geometry":{"type":"MultiPolygon","coordinates":[[[[126.29241,33.31049],[126.28737,33.30709],[126.28635,33.30432],[126.28206,33.3032],[126.28341,33.3014],[126.29348,33.29642],[126.29309,33.29316],[126.29391,33.28578],[126.29598,33.28349],[126.30203,33.28052],[126.30465,33.27511],[126.29894,33.27065],[126.29497,33.2661],[126.2968,33.2631],[126.29566,33.26211],[126.29558,33.25673],[126.29413,33.25621],[126.2935,33.25054],[126.29045,33.24647],[126.29,33.24397],[126.285,33.23936],[126.28543,33.23509],[126.28435,33.23183],[126.28973,33.22602],[126.29049,33.22329],[126.29017,33.22013],[126.29161,33.2182],[126.29655,33.21772],[126.29686,33.2188],[126.29607,33.21931],[126.2979,33.22259],[126.30106,33.22355],[126.30164,33.2262],[126.3045,33.22624],[126.30538,33.22768],[126.30859,33.22759],[126.30972,33.22994],[126.31254,33.23247],[126.31541,33.23159],[126.31527,33.23507],[126.31642,33.23641],[126.32068,33.23877],[126.32538,33.239],[126.32773,33.24079],[126.33065,33.24094],[126.33376,33.23914],[126.33545,33.23481],[126.33888,33.23559],[126.34333,33.23501],[126.34704,33.23616],[126.34992,33.23454],[126.35767,33.23672],[126.36179,33.23598],[126.36324,33.23158],[126.36503,33.22985],[126.36781,33.23152],[126.36891,33.22968],[126.37308,33.22948],[126.37282,33.23103],[126.37678,33.23199],[126.37557,33.23402],[126.37917,33.2311],[126.3796,33.23397],[126.3822,33.23381],[126.3843,33.23238],[126.38658,33.2346],[126.38934,33.23502],[126.39108,33.23725],[126.39488,33.23771],[126.39744,33.24051],[126.40164,33.24105],[126.40334,33.24334],[126.40562,33.2432],[126.40858,33.24455],[126.41319,33.24452],[126.4147,33.24218],[126.41813,33.24362],[126.42408,33.23697],[126.42876,33.23491],[126.43162,33.23521],[126.43406,33.2337],[126.43506,33.23634],[126.4379,33.23697],[126.43845,33.2385],[126.44227,33.23715],[126.44564,33.23839],[126.44993,33.24111],[126.46006,33.23936],[126.46197,33.23747],[126.46357,33.23417],[126.46309,33.23146],[126.46557,33.22897],[126.4684,33.22835],[126.469,33.22612],[126.47126,33.22376],[126.47252,33.22586],[126.47791,33.22765],[126.47953,33.22655],[126.48808,33.22898],[126.49079,33.2303],[126.49392,33.2305],[126.49695,33.23205],[126.49959,33.2317],[126.50219,33.22995],[126.50862,33.22973],[126.51055,33.23043],[126.51371,33.23324],[126.51377,33.23446],[126.5154,33.23712],[126.5184,33.23645],[126.51895,33.23824],[126.5224,33.24001],[126.5262,33.24026],[126.52901,33.23879],[126.53054,33.23942],[126.5339,33.23884],[126.54037,33.24165],[126.54346,33.23864],[126.54485,33.23982],[126.54812,33.23925],[126.55084,33.24127],[126.55483,33.23873],[126.55784,33.23907],[126.55858,33.23631],[126.56215,33.23448],[126.56426,33.23468],[126.563,33.23826],[126.56018,33.23752],[126.55925,33.24099],[126.56406,33.23917],[126.5656,33.23762],[126.56882,33.24085],[126.56882,33.243],[126.57219,33.24437],[126.57458,33.24383],[126.57783,33.24484],[126.58157,33.24255],[126.58457,33.24376],[126.58702,33.24225],[126.58668,33.24106],[126.58753,33.2423],[126.59198,33.24082],[126.59098,33.23939],[126.59428,33.23661],[126.59715,33.23552],[126.59949,33.23427],[126.60239,33.2367],[126.60513,33.23867],[126.60683,33.23753],[126.60739,33.23927],[126.61434,33.23952],[126.61824,33.24129],[126.61977,33.24971],[126.6279,33.25121],[126.62878,33.25431],[126.6329,33.25365],[126.63523,33.25646],[126.6402,33.25701],[126.64032,33.25946],[126.64375,33.26175],[126.64191,33.26442],[126.64391,33.26694],[126.64689,33.26723],[126.64905,33.26866],[126.65288,33.26984],[126.65825,33.26856],[126.66011,33.2709],[126.65819,33.27388],[126.66236,33.27397],[126.66119,33.27118],[126.66413,33.2698],[126.66673,33.27063],[126.66888,33.2712],[126.67108,33.27107],[126.67398,33.26779],[126.67657,33.26796],[126.67865,33.2685],[126.67844,33.27066],[126.68149,33.27091],[126.68334,33.26955],[126.68973,33.2695],[126.6916,33.26988],[126.6995,33.2707],[126.70543,33.2736],[126.71147,33.27444],[126.71332,33.27617],[126.71665,33.27506],[126.71914,33.27705],[126.7228,33.27652],[126.72312,33.27857],[126.72588,33.27935],[126.73152,33.27853],[126.73329,33.28161],[126.73544,33.28125],[126.73984,33.27745],[126.74538,33.2784],[126.7485,33.28131],[126.75129,33.28667],[126.75698,33.28773],[126.76127,33.29173],[126.76554,33.29335],[126.7664,33.29785],[126.76883,33.29996],[126.77313,33.30051],[126.77515,33.30475],[126.77649,33.30593],[126.77398,33.30975],[126.7699,33.31079],[126.76547,33.31558],[126.76545,33.31715],[126.76163,33.31801],[126.76027,33.32386],[126.75739,33.32705],[126.75946,33.32785],[126.76001,33.33162],[126.75639,33.33726],[126.75608,33.33987],[126.75184,33.34209],[126.74928,33.34831],[126.74717,33.3507],[126.74542,33.35064],[126.74238,33.35301],[126.74136,33.35696],[126.73732,33.35988],[126.73765,33.36211],[126.73402,33.36392],[126.73306,33.36148],[126.73113,33.35986],[126.73114,33.35742],[126.73308,33.3558],[126.73309,33.35337],[126.73019,33.35093],[126.72536,33.35173],[126.7244,33.3501],[126.72537,33.34686],[126.72152,33.34279],[126.71573,33.33953],[126.71573,33.33791],[126.70993,33.33709],[126.70027,33.33706],[126.69931,33.33382],[126.69738,33.33381],[126.69352,33.33218],[126.69255,33.3338],[126.68579,33.33054],[126.6829,33.32728],[126.67904,33.32727],[126.67711,33.32565],[126.67712,33.3224],[126.67519,33.32077],[126.67424,33.31752],[126.67134,33.3167],[126.67135,33.31508],[126.66749,33.31264],[126.66654,33.30858],[126.66171,33.30775],[126.65977,33.31018],[126.65397,33.30935],[126.65302,33.30692],[126.64529,33.30689],[126.64337,33.30364],[126.63854,33.30282],[126.63177,33.3028],[126.62983,33.30442],[126.62789,33.30766],[126.62402,33.30764],[126.61726,33.306],[126.61532,33.30762],[126.61341,33.30437],[126.60471,33.30434],[126.60374,33.30596],[126.5989,33.30594],[126.59893,33.30026],[126.597,33.29863],[126.59217,33.29943],[126.5893,33.29212],[126.58932,33.28806],[126.5874,33.28562],[126.58741,33.28318],[126.58452,33.28155],[126.57679,33.28152],[126.57582,33.28314],[126.57196,33.28313],[126.57196,33.28151],[126.56907,33.27988],[126.56908,33.27825],[126.56619,33.27662],[126.56039,33.2766],[126.55944,33.27497],[126.55751,33.27415],[126.55268,33.27414],[126.54882,33.2725],[126.53723,33.27246],[126.53627,33.27083],[126.53145,33.26919],[126.52856,33.26756],[126.52568,33.2643],[126.52375,33.26429],[126.52087,33.26185],[126.51508,33.26101],[126.50059,33.26096],[126.49962,33.26176],[126.49959,33.26744],[126.49861,33.26906],[126.49475,33.26824],[126.48509,33.2682],[126.48217,33.27224],[126.47734,33.27222],[126.47636,33.27384],[126.47347,33.27302],[126.46864,33.273],[126.46767,33.27461],[126.46767,33.27299],[126.46381,33.27297],[126.46189,33.27053],[126.46095,33.26728],[126.45322,33.26725],[126.45128,33.26805],[126.4503,33.27129],[126.43484,33.27122],[126.43194,33.27202],[126.42905,33.27039],[126.4271,33.27362],[126.42227,33.2736],[126.42131,33.27197],[126.42036,33.27034],[126.41746,33.27033],[126.41745,33.27195],[126.41359,33.27194],[126.40778,33.27272],[126.40586,33.27109],[126.40104,33.27025],[126.39815,33.26862],[126.39621,33.26942],[126.39138,33.2694],[126.38847,33.27182],[126.38171,33.27178],[126.38073,33.2734],[126.37783,33.2742],[126.37683,33.27825],[126.37392,33.27986],[126.36717,33.27901],[126.36427,33.27819],[126.35751,33.27815],[126.35171,33.27893],[126.35169,33.28137],[126.34879,33.28216],[126.34781,33.28378],[126.34103,33.28537],[126.34199,33.287],[126.3352,33.29021],[126.33518,33.29264],[126.32745,33.29341],[126.32646,33.29584],[126.32838,33.29747],[126.32644,33.29908],[126.32354,33.29826],[126.31775,33.29822],[126.31483,33.30064],[126.31481,33.30308],[126.31093,33.30468],[126.30606,33.30952],[126.30219,33.31031],[126.30025,33.31111],[126.29638,33.3119],[126.2954,33.31352],[126.29371,33.31432],[126.29241,33.31049]],[[126.3095,33.24138],[126.30948,33.24381],[126.31236,33.24545],[126.31719,33.24548],[126.31721,33.24304],[126.31434,33.23897],[126.31048,33.23895],[126.3095,33.24138]],[[126.31398,33.28522],[126.31492,33.28928],[126.31975,33.28931],[126.31786,33.28362],[126.314,33.2836],[126.31398,33.28522]],[[126.37118,33.25793],[126.37119,33.25631],[126.37506,33.25633],[126.37508,33.25309],[126.37219,33.25145],[126.36447,33.25141],[126.36349,33.25303],[126.36444,33.25547],[126.36732,33.2571],[126.37118,33.25793]],[[126.6009,33.29215],[126.59896,33.29296],[126.59894,33.29702],[126.60184,33.29784],[126.60186,33.29297],[126.6009,33.29215]],[[126.60094,33.28404],[126.60189,33.28648],[126.60576,33.28568],[126.60481,33.28243],[126.60094,33.28242],[126.60094,33.28404]]],[[[126.30112,33.32329],[126.30112,33.32302],[126.30164,33.32329],[126.30112,33.32329]]],[[[126.3069,33.32629],[126.3069,33.32575],[126.30828,33.32576],[126.3069,33.32629]]],[[[126.31151,33.32659],[126.31463,33.32661],[126.31462,33.32697],[126.31151,33.32659]]],[[[126.35125,33.3406],[126.35705,33.34063],[126.35705,33.34105],[126.35125,33.3406]]],[[[126.37249,33.34526],[126.37171,33.34476],[126.37249,33.34477],[126.37249,33.34526]]],[[[126.37441,33.3464],[126.37442,33.34613],[126.3748,33.3464],[126.37441,33.3464]]],[[[126.38768,33.34531],[126.38698,33.34484],[126.38883,33.34485],[126.38768,33.34531]]],[[[126.51565,33.2203],[126.51429,33.2185],[126.51565,33.21601],[126.51837,33.21607],[126.51891,33.2184],[126.51565,33.2203]]],[[[126.5637,33.22762],[126.56444,33.22533],[126.56839,33.22518],[126.56843,33.22684],[126.5637,33.22762]]],[[[126.60255,33.22989],[126.59839,33.23216],[126.59663,33.2312],[126.59645,33.2288],[126.59963,33.22811],[126.60255,33.22989]]],[[[126.65262,33.22636],[126.65219,33.22362],[126.65394,33.2225],[126.65642,33.22345],[126.65915,33.22588],[126.65687,33.22715],[126.65262,33.22636]]]]}},{"type":"Feature","properties":{"name":"제주도북부중산간","note":"근사(2022-12-17~): 제주시중산간 그대로","source":"approx_union_2026-08-24"},"geometry":{"type":"MultiPolygon","coordinates":[[[[126.31217,33.39313],[126.31219,33.3907],[126.30735,33.39067],[126.30352,33.38659],[126.30061,33.38658],[126.30064,33.38333],[126.29871,33.38251],[126.29777,33.37926],[126.29586,33.376],[126.29101,33.3776],[126.29201,33.37436],[126.29211,33.36137],[126.29019,33.36055],[126.29021,33.35812],[126.29215,33.35651],[126.29122,33.35244],[126.29126,33.34757],[126.28936,33.34351],[126.2894,33.33864],[126.29136,33.33459],[126.29141,33.32891],[126.2924,33.32567],[126.29049,33.32323],[126.29053,33.31836],[126.29151,33.31593],[126.29442,33.31514],[126.2944,33.31757],[126.29537,33.31757],[126.29534,33.32082],[126.29726,33.32245],[126.30113,33.32248],[126.30159,33.32326],[126.30164,33.32329],[126.3016,33.32329],[126.30208,33.3241],[126.30401,33.32412],[126.304,33.32574],[126.30497,33.32574],[126.30497,33.32594],[126.30496,33.32655],[126.30619,33.32656],[126.3069,33.32629],[126.3069,33.32575],[126.31077,33.32578],[126.31076,33.32659],[126.31463,33.32661],[126.31462,33.32742],[126.31945,33.32745],[126.32043,33.32583],[126.32085,33.32583],[126.32333,33.32584],[126.32333,33.32627],[126.32332,33.32747],[126.32525,33.32748],[126.32524,33.3291],[126.32679,33.32998],[126.32716,33.33019],[126.32813,33.33074],[126.32811,33.33236],[126.32896,33.33237],[126.32908,33.33237],[126.33067,33.334],[126.33082,33.334],[126.33167,33.334],[126.33197,33.33401],[126.33196,33.33452],[126.33196,33.33482],[126.33388,33.33645],[126.33485,33.33646],[126.33579,33.33971],[126.33965,33.34135],[126.33963,33.34378],[126.34543,33.343],[126.34544,33.34219],[126.34931,33.3414],[126.34932,33.34059],[126.35029,33.34059],[126.35028,33.34141],[126.35125,33.34141],[126.35125,33.3406],[126.35705,33.34063],[126.35705,33.34144],[126.35995,33.34146],[126.35994,33.34227],[126.36284,33.34228],[126.36285,33.34147],[126.36961,33.34151],[126.36961,33.34194],[126.37009,33.34232],[126.37058,33.34232],[126.37056,33.34394],[126.37249,33.34477],[126.37249,33.34558],[126.37442,33.34559],[126.37537,33.34721],[126.37634,33.34722],[126.37635,33.34641],[126.38149,33.34643],[126.38311,33.34644],[126.38312,33.34594],[126.38312,33.34563],[126.38602,33.34564],[126.38603,33.34483],[126.3868,33.34484],[126.38698,33.34484],[126.38989,33.34485],[126.3899,33.34404],[126.39956,33.3449],[126.39954,33.34815],[126.39856,33.34976],[126.39566,33.34975],[126.3947,33.34812],[126.3918,33.34811],[126.39083,33.34973],[126.3908,33.35378],[126.39175,33.35622],[126.38981,33.35702],[126.38979,33.35946],[126.39171,33.36109],[126.39266,33.36353],[126.39555,33.36598],[126.3965,33.36761],[126.39648,33.37166],[126.3955,33.37328],[126.39161,33.3757],[126.38872,33.37406],[126.38388,33.37485],[126.38289,33.3789],[126.38384,33.38134],[126.38576,33.38216],[126.3906,33.38218],[126.39449,33.37977],[126.39835,33.37979],[126.40027,33.38304],[126.40315,33.38549],[126.40313,33.38792],[126.40506,33.38956],[126.40504,33.39199],[126.41082,33.39526],[126.41081,33.3977],[126.4137,33.39933],[126.41369,33.40096],[126.42142,33.4018],[126.42238,33.40343],[126.42624,33.40426],[126.43012,33.40347],[126.43203,33.40753],[126.43201,33.40997],[126.43587,33.4108],[126.43686,33.40756],[126.43978,33.40595],[126.44752,33.40598],[126.45331,33.40763],[126.45427,33.40926],[126.45814,33.40927],[126.46006,33.4109],[126.46005,33.41253],[126.46682,33.41418],[126.46777,33.41581],[126.47551,33.41665],[126.48036,33.41505],[126.48133,33.41343],[126.48616,33.41507],[126.49003,33.41509],[126.49099,33.41672],[126.49388,33.41835],[126.49775,33.41837],[126.49871,33.41999],[126.50451,33.42083],[126.50646,33.41921],[126.51323,33.41924],[126.51808,33.41764],[126.52388,33.41766],[126.52581,33.41848],[126.52774,33.42092],[126.53548,33.42095],[126.53548,33.42014],[126.54903,33.42019],[126.55192,33.42182],[126.55579,33.42183],[126.55772,33.42346],[126.56546,33.42349],[126.56546,33.4243],[126.57223,33.42433],[126.5761,33.42515],[126.57706,33.42678],[126.58867,33.42682],[126.59255,33.42602],[126.59351,33.42764],[126.5993,33.4301],[126.61188,33.43095],[126.61477,33.43339],[126.61864,33.4334],[126.61866,33.43016],[126.62252,33.43098],[126.62256,33.42205],[126.62063,33.42205],[126.62161,33.41881],[126.62548,33.41882],[126.62453,33.41557],[126.62937,33.41477],[126.63035,33.41072],[126.63423,33.40992],[126.63617,33.40749],[126.64101,33.40588],[126.64393,33.40345],[126.64394,33.3994],[126.64685,33.39941],[126.64781,33.40103],[126.65264,33.40104],[126.65264,33.40267],[126.65651,33.40187],[126.65748,33.40025],[126.65942,33.40025],[126.65941,33.40187],[126.66618,33.40189],[126.66667,33.40108],[126.66669,33.40106],[126.66716,33.40027],[126.66823,33.40028],[126.66914,33.40028],[126.67006,33.40028],[126.67006,33.40093],[126.67027,33.40109],[126.67006,33.40109],[126.67295,33.40272],[126.67295,33.40353],[126.67489,33.40354],[126.67488,33.40402],[126.67541,33.40435],[126.67488,33.40435],[126.67681,33.40517],[126.67681,33.40598],[126.6777,33.40598],[126.67778,33.40598],[126.67874,33.40761],[126.68068,33.40761],[126.68164,33.40924],[126.68164,33.40898],[126.68221,33.40924],[126.6826,33.40941],[126.6826,33.41005],[126.68454,33.41006],[126.68453,33.41075],[126.68467,33.41087],[126.6855,33.41087],[126.6855,33.41159],[126.6856,33.41168],[126.68647,33.41168],[126.68646,33.41222],[126.68646,33.41249],[126.68743,33.4125],[126.68791,33.41331],[126.6884,33.41331],[126.68839,33.41357],[126.68795,33.41338],[126.68839,33.41412],[126.69226,33.41494],[126.69226,33.41576],[126.69419,33.41576],[126.69467,33.41656],[126.69467,33.41657],[126.69515,33.41739],[126.69667,33.41771],[126.69617,33.41739],[126.6966,33.41763],[126.69679,33.41773],[126.69902,33.41821],[126.69998,33.41983],[126.70482,33.42065],[126.70482,33.42147],[126.71159,33.42229],[126.71159,33.42148],[126.7174,33.4215],[126.71739,33.42231],[126.7203,33.42231],[126.72029,33.42312],[126.7232,33.42313],[126.72319,33.42394],[126.7261,33.42395],[126.72609,33.42476],[126.72803,33.42476],[126.72803,33.42498],[126.72803,33.42558],[126.72996,33.42558],[126.72996,33.42639],[126.73287,33.42478],[126.73578,33.42316],[126.73578,33.42235],[126.73771,33.42235],[126.73869,33.42073],[126.74159,33.42074],[126.74159,33.41993],[126.74933,33.41994],[126.74934,33.41913],[126.75127,33.41913],[126.75127,33.41994],[126.75707,33.41996],[126.75707,33.42077],[126.75998,33.42077],[126.75997,33.42158],[126.76155,33.42159],[126.76191,33.42175],[126.76191,33.4224],[126.76384,33.4224],[126.76423,33.42306],[126.76432,33.4231],[126.76426,33.42311],[126.76481,33.42403],[126.76867,33.42485],[126.76867,33.42566],[126.7706,33.42647],[126.7706,33.42671],[126.7706,33.42729],[126.77254,33.4281],[126.77253,33.42891],[126.7735,33.42891],[126.7735,33.42972],[126.77544,33.42973],[126.77543,33.4304],[126.77558,33.43054],[126.7764,33.43054],[126.7764,33.43216],[126.77736,33.43298],[126.77833,33.43298],[126.77929,33.4346],[126.78317,33.43461],[126.78316,33.43542],[126.78411,33.43582],[126.78413,33.43583],[126.7851,33.43624],[126.78509,33.43786],[126.78703,33.43867],[126.78702,33.4403],[126.78799,33.4403],[126.78799,33.44096],[126.78821,33.44111],[126.79573,33.44112],[126.79573,33.44031],[126.79767,33.44032],[126.79767,33.4395],[126.80057,33.43951],[126.80057,33.44004],[126.80057,33.44032],[126.80154,33.44032],[126.80154,33.44194],[126.8025,33.44195],[126.80347,33.44357],[126.80541,33.44357],[126.8054,33.4438],[126.8054,33.44438],[126.81024,33.4452],[126.81411,33.44521],[126.81508,33.44683],[126.81798,33.44684],[126.81895,33.44765],[126.81894,33.45171],[126.8199,33.45414],[126.82184,33.45496],[126.82183,33.45739],[126.81989,33.45901],[126.81118,33.459],[126.80827,33.46143],[126.8044,33.46224],[126.79955,33.46466],[126.79954,33.46791],[126.7976,33.46872],[126.79373,33.4679],[126.78889,33.46789],[126.78792,33.46951],[126.78405,33.4695],[126.78114,33.46869],[126.7763,33.46949],[126.77339,33.47192],[126.77532,33.47436],[126.77531,33.4776],[126.77337,33.48003],[126.76853,33.48003],[126.76659,33.48083],[126.76465,33.48326],[126.76271,33.48407],[126.76173,33.4865],[126.75786,33.4865],[126.7569,33.48406],[126.754,33.48243],[126.75204,33.48811],[126.7501,33.48892],[126.75009,33.49297],[126.73556,33.49375],[126.73459,33.49537],[126.73168,33.49537],[126.72878,33.49536],[126.72782,33.49293],[126.72394,33.49373],[126.71522,33.49371],[126.71425,33.49533],[126.71134,33.49695],[126.7065,33.49693],[126.70457,33.49287],[126.7007,33.49286],[126.69877,33.49042],[126.69587,33.48879],[126.69297,33.48879],[126.692,33.48716],[126.6891,33.48715],[126.6862,33.48552],[126.68039,33.48632],[126.67263,33.48955],[126.66972,33.49035],[126.66294,33.49033],[126.65906,33.49194],[126.6552,33.4895],[126.65035,33.48949],[126.64552,33.48866],[126.64454,33.49028],[126.64163,33.49108],[126.63969,33.49189],[126.63679,33.49107],[126.63098,33.49105],[126.62904,33.49186],[126.62615,33.48698],[126.62325,33.48616],[126.60776,33.48611],[126.60583,33.48448],[126.6039,33.48285],[126.59905,33.48365],[126.59615,33.48283],[126.59519,33.4812],[126.59229,33.48119],[126.59037,33.47794],[126.58842,33.48037],[126.58164,33.48035],[126.58068,33.47872],[126.57681,33.47871],[126.57779,33.47465],[126.57488,33.47627],[126.57295,33.47626],[126.57102,33.47301],[126.56424,33.4738],[126.56232,33.47135],[126.56039,33.47054],[126.55651,33.47052],[126.55652,33.4689],[126.54974,33.46887],[126.54685,33.46724],[126.5391,33.46721],[126.53524,33.46639],[126.53331,33.46476],[126.52944,33.46393],[126.52073,33.4639],[126.52072,33.46471],[126.51298,33.46468],[126.50912,33.46223],[126.50814,33.46385],[126.49749,33.46381],[126.49845,33.46624],[126.4984,33.47436],[126.49743,33.47517],[126.49356,33.47434],[126.49359,33.46866],[126.48973,33.46702],[126.48974,33.46459],[126.48588,33.46295],[126.48492,33.46132],[126.47815,33.45967],[126.4772,33.45723],[126.47236,33.45802],[126.4714,33.45639],[126.46075,33.45635],[126.45979,33.45472],[126.45592,33.45389],[126.44237,33.45383],[126.43946,33.45544],[126.43559,33.45542],[126.43269,33.4546],[126.42885,33.44971],[126.42692,33.44889],[126.42207,33.44968],[126.42015,33.44805],[126.41919,33.44561],[126.41532,33.44559],[126.41531,33.44722],[126.4124,33.44801],[126.40854,33.44637],[126.40855,33.44475],[126.40178,33.44472],[126.3979,33.44551],[126.39694,33.44388],[126.39406,33.44143],[126.39117,33.4398],[126.38633,33.43977],[126.38345,33.43651],[126.38055,33.43569],[126.37957,33.43731],[126.37474,33.43647],[126.37182,33.43808],[126.36699,33.43724],[126.36508,33.43399],[126.36509,33.43155],[126.36221,33.4291],[126.35834,33.42908],[126.35642,33.42664],[126.35158,33.42743],[126.3516,33.42418],[126.34967,33.42336],[126.35164,33.4185],[126.34682,33.41604],[126.34491,33.4136],[126.34397,33.40953],[126.34107,33.40871],[126.33819,33.40545],[126.33822,33.40139],[126.3363,33.40057],[126.33535,33.39813],[126.32857,33.3989],[126.32763,33.39565],[126.32571,33.39402],[126.32184,33.394],[126.32088,33.39237],[126.31797,33.39316],[126.31217,33.39313]],[[126.62252,33.43098],[126.62251,33.43423],[126.62541,33.43586],[126.62928,33.43587],[126.63026,33.43344],[126.63316,33.43345],[126.63414,33.4302],[126.63027,33.42938],[126.6293,33.431],[126.62252,33.43098]],[[126.3811,33.35779],[126.37723,33.35777],[126.37722,33.36021],[126.38108,33.36023],[126.3811,33.35779]],[[126.38209,33.35455],[126.38308,33.35131],[126.37922,33.34967],[126.37921,33.3521],[126.38209,33.35455]]],[[[126.50905,33.4744],[126.50904,33.47683],[126.50516,33.47763],[126.50614,33.47439],[126.50905,33.4744]]],[[[126.65652,33.39943],[126.65749,33.39943],[126.65748,33.40025],[126.65652,33.40024],[126.65652,33.39943]]],[[[126.79656,33.50117],[126.79655,33.50442],[126.79365,33.50441],[126.79268,33.50198],[126.79656,33.50117]]],[[[126.80047,33.48414],[126.7966,33.48332],[126.79661,33.48089],[126.80145,33.47927],[126.80241,33.48252],[126.80144,33.48252],[126.80047,33.48414]]],[[[126.81793,33.47362],[126.82277,33.47281],[126.8247,33.47363],[126.82469,33.48012],[126.82372,33.48093],[126.81791,33.48092],[126.81597,33.4801],[126.81598,33.47686],[126.81502,33.47442],[126.81793,33.47362]]],[[[126.83248,33.45741],[126.83344,33.46065],[126.82957,33.45984],[126.82958,33.4574],[126.83248,33.45741]]]]}},{"type":"Feature","properties":{"name":"제주도남부중산간","note":"근사(2022-12-19~): 서귀포시중산간 그대로","source":"approx_union_2026-08-24"},"geometry":{"type":"MultiPolygon","coordinates":[[[[126.29442,33.31514],[126.29443,33.31432],[126.2954,33.31352],[126.29638,33.3119],[126.29832,33.3111],[126.30219,33.31031],[126.30606,33.30952],[126.31093,33.30468],[126.31481,33.30308],[126.31483,33.30064],[126.31775,33.29822],[126.32354,33.29826],[126.32644,33.29908],[126.32838,33.29747],[126.32646,33.29584],[126.32745,33.29341],[126.33518,33.29264],[126.3352,33.29021],[126.34199,33.287],[126.34103,33.28537],[126.34781,33.28378],[126.34879,33.28216],[126.35169,33.28137],[126.35171,33.27893],[126.35751,33.27815],[126.36427,33.27819],[126.36717,33.27901],[126.37392,33.27986],[126.37683,33.27825],[126.37783,33.2742],[126.38073,33.2734],[126.38171,33.27178],[126.38847,33.27182],[126.39138,33.2694],[126.39621,33.26942],[126.39815,33.26862],[126.40104,33.27025],[126.40586,33.27109],[126.40778,33.27272],[126.41359,33.27194],[126.41745,33.27195],[126.41746,33.27033],[126.42036,33.27035],[126.42131,33.27197],[126.42227,33.2736],[126.4271,33.27362],[126.42905,33.27039],[126.43194,33.27202],[126.43484,33.27122],[126.4503,33.27129],[126.45128,33.26805],[126.45322,33.26725],[126.46095,33.26728],[126.46189,33.27053],[126.46381,33.27297],[126.46768,33.27299],[126.46767,33.27461],[126.46864,33.273],[126.47347,33.27302],[126.47636,33.27384],[126.47734,33.27222],[126.48217,33.27224],[126.48509,33.2682],[126.49475,33.26824],[126.49861,33.26906],[126.49959,33.26744],[126.49962,33.26176],[126.50059,33.26096],[126.51508,33.26101],[126.52087,33.26185],[126.52375,33.26429],[126.52568,33.2643],[126.52856,33.26756],[126.53145,33.26919],[126.53627,33.27083],[126.53723,33.27246],[126.54882,33.2725],[126.55268,33.27414],[126.55751,33.27415],[126.55944,33.27497],[126.56039,33.2766],[126.56619,33.27662],[126.56908,33.27825],[126.56907,33.27988],[126.57196,33.28151],[126.57196,33.28313],[126.57582,33.28314],[126.57679,33.28152],[126.58452,33.28155],[126.58741,33.28318],[126.5874,33.28562],[126.58932,33.28806],[126.5893,33.29212],[126.59217,33.29943],[126.597,33.29863],[126.59893,33.30026],[126.5989,33.30594],[126.60374,33.30596],[126.60471,33.30434],[126.61341,33.30437],[126.61532,33.30762],[126.61726,33.306],[126.62402,33.30764],[126.62789,33.30766],[126.62983,33.30442],[126.63177,33.3028],[126.63854,33.30282],[126.64337,33.30364],[126.64529,33.30689],[126.65302,33.30692],[126.65397,33.30935],[126.65977,33.31018],[126.66171,33.30775],[126.66654,33.30858],[126.66749,33.31264],[126.67135,33.31508],[126.67134,33.3167],[126.67424,33.31752],[126.67519,33.32077],[126.67712,33.3224],[126.67711,33.32565],[126.67904,33.32727],[126.6829,33.32728],[126.68579,33.33054],[126.69255,33.3338],[126.69352,33.33218],[126.69738,33.33381],[126.69931,33.33382],[126.70027,33.33706],[126.70993,33.33709],[126.71573,33.33791],[126.71573,33.33953],[126.72152,33.34279],[126.72537,33.34686],[126.7244,33.3501],[126.72536,33.35173],[126.73019,33.35093],[126.73309,33.35337],[126.73308,33.3558],[126.73114,33.35742],[126.73113,33.35986],[126.73306,33.36148],[126.73402,33.36392],[126.73402,33.36554],[126.73595,33.36555],[126.73789,33.36393],[126.74176,33.36312],[126.74465,33.36638],[126.74562,33.36475],[126.75046,33.36395],[126.75143,33.36477],[126.75141,33.36963],[126.74851,33.37125],[126.7485,33.37287],[126.7543,33.37532],[126.75525,33.38019],[126.75815,33.38182],[126.76492,33.38183],[126.76878,33.38346],[126.76877,33.38671],[126.7707,33.38915],[126.77554,33.38997],[126.77843,33.39403],[126.78423,33.39404],[126.78616,33.39648],[126.78518,33.40053],[126.78228,33.40215],[126.77647,33.40376],[126.7755,33.40538],[126.7726,33.40376],[126.76873,33.40456],[126.76776,33.40618],[126.76872,33.40862],[126.7687,33.4143],[126.7716,33.41593],[126.77741,33.41594],[126.7803,33.41757],[126.78321,33.41595],[126.7861,33.42082],[126.78998,33.42002],[126.79094,33.42164],[126.7919,33.42408],[126.79481,33.42246],[126.80932,33.42248],[126.81125,33.42573],[126.81415,33.42817],[126.81414,33.4306],[126.81608,33.43142],[126.81607,33.43466],[126.82381,33.43468],[126.82381,33.43711],[126.82186,33.44116],[126.81799,33.44197],[126.81798,33.44603],[126.81798,33.44684],[126.81508,33.44683],[126.81411,33.44521],[126.81024,33.4452],[126.8054,33.44438],[126.8054,33.4438],[126.80541,33.44357],[126.80347,33.44357],[126.8025,33.44195],[126.80154,33.44194],[126.80154,33.44053],[126.80154,33.44032],[126.80057,33.44032],[126.80057,33.43951],[126.79767,33.4395],[126.79767,33.44032],[126.79573,33.44031],[126.79573,33.44112],[126.78821,33.44111],[126.78799,33.44111],[126.78799,33.4403],[126.78702,33.4403],[126.78703,33.43867],[126.78509,33.43786],[126.7851,33.43624],[126.78413,33.43583],[126.78413,33.43584],[126.78411,33.43582],[126.78316,33.43542],[126.78317,33.43461],[126.77929,33.4346],[126.77833,33.43298],[126.77736,33.43298],[126.7764,33.43216],[126.7764,33.43054],[126.77558,33.43054],[126.77543,33.43054],[126.77544,33.42973],[126.7735,33.42972],[126.7735,33.42917],[126.7735,33.42891],[126.77253,33.42891],[126.77254,33.4281],[126.77157,33.42759],[126.76964,33.42647],[126.76964,33.42602],[126.76964,33.42566],[126.76904,33.42566],[126.76867,33.42566],[126.76867,33.42485],[126.76481,33.42403],[126.76426,33.42311],[126.76384,33.42322],[126.76384,33.42291],[126.76388,33.42292],[126.76423,33.42306],[126.76384,33.4224],[126.76191,33.4224],[126.76191,33.42175],[126.76155,33.42159],[126.75997,33.42158],[126.75998,33.42077],[126.75707,33.42077],[126.75707,33.41996],[126.75127,33.41994],[126.75127,33.41913],[126.74934,33.41913],[126.74933,33.41994],[126.74159,33.41993],[126.74159,33.42074],[126.73869,33.42073],[126.73771,33.42235],[126.73578,33.42235],[126.73578,33.42316],[126.73287,33.42478],[126.72996,33.42639],[126.72996,33.42558],[126.72803,33.42558],[126.72803,33.42498],[126.72761,33.42476],[126.72609,33.42476],[126.7261,33.42395],[126.72319,33.42394],[126.7232,33.42313],[126.71739,33.42231],[126.7174,33.4215],[126.71159,33.42148],[126.71159,33.42229],[126.70868,33.42229],[126.70869,33.42148],[126.70482,33.42147],[126.70482,33.42065],[126.70394,33.42065],[126.70288,33.42065],[126.70289,33.41984],[126.69998,33.41983],[126.69902,33.41821],[126.69679,33.41773],[126.69698,33.41784],[126.69709,33.41797],[126.69667,33.41771],[126.69515,33.41739],[126.69467,33.41657],[126.69467,33.41656],[126.69419,33.41576],[126.69226,33.41576],[126.69226,33.41494],[126.68839,33.41412],[126.68795,33.41338],[126.68779,33.41331],[126.68791,33.41331],[126.68743,33.4125],[126.68646,33.41249],[126.68647,33.41168],[126.6855,33.41168],[126.6855,33.41159],[126.6855,33.41087],[126.68453,33.41087],[126.68453,33.41075],[126.68454,33.41006],[126.6826,33.41005],[126.6826,33.40941],[126.68221,33.40924],[126.68164,33.40924],[126.68068,33.40761],[126.67874,33.40761],[126.67778,33.40598],[126.67778,33.40604],[126.6777,33.40598],[126.67681,33.40598],[126.67681,33.40531],[126.67681,33.40517],[126.67488,33.40435],[126.67489,33.40354],[126.67295,33.40353],[126.67295,33.40298],[126.67295,33.40272],[126.67006,33.40109],[126.67006,33.40093],[126.67006,33.40028],[126.66823,33.40028],[126.66716,33.40027],[126.66669,33.40106],[126.66667,33.40108],[126.66618,33.40189],[126.65941,33.40187],[126.65942,33.40025],[126.65748,33.40025],[126.65652,33.39862],[126.65459,33.39862],[126.6546,33.39456],[126.65364,33.39293],[126.64494,33.39291],[126.64301,33.39047],[126.64304,33.38479],[126.64014,33.38316],[126.63823,33.37747],[126.63437,33.37584],[126.63341,33.37421],[126.63342,33.37097],[126.62957,33.3669],[126.6296,33.35878],[126.62671,33.35796],[126.62673,33.35309],[126.62576,33.35228],[126.62093,33.35226],[126.61514,33.34981],[126.61418,33.34819],[126.61128,33.34818],[126.60743,33.34411],[126.60744,33.34086],[126.60648,33.33924],[126.60358,33.33923],[126.60263,33.3376],[126.59006,33.33756],[126.5862,33.33511],[126.58524,33.33349],[126.58235,33.33185],[126.58042,33.33104],[126.5785,33.3286],[126.57755,33.32535],[126.57466,33.32371],[126.57275,33.31884],[126.57082,33.31721],[126.56889,33.3172],[126.56214,33.31474],[126.56019,33.31717],[126.55729,33.31716],[126.55537,33.31553],[126.5486,33.31551],[126.54764,33.31469],[126.54766,33.30982],[126.54671,33.3082],[126.54284,33.30818],[126.54091,33.30736],[126.53899,33.30492],[126.52933,33.30408],[126.52741,33.30326],[126.52548,33.30244],[126.52065,33.30161],[126.51873,33.29998],[126.51389,33.29996],[126.50712,33.30155],[126.50423,33.29992],[126.4994,33.2999],[126.49746,33.30152],[126.48972,33.3023],[126.48393,33.30146],[126.48295,33.30308],[126.47715,33.30387],[126.47523,33.30224],[126.47233,33.30222],[126.46748,33.30545],[126.46362,33.30462],[126.45395,33.30458],[126.45395,33.30539],[126.44622,33.30536],[126.4433,33.30778],[126.44232,33.31102],[126.43845,33.31181],[126.43457,33.31342],[126.43359,33.31504],[126.43069,33.31502],[126.42972,33.31664],[126.42681,33.31744],[126.42005,33.31741],[126.41713,33.32064],[126.41711,33.32226],[126.41324,33.32387],[126.40841,33.32303],[126.39875,33.32299],[126.39874,33.3238],[126.39584,33.32378],[126.39292,33.3262],[126.39291,33.32864],[126.39483,33.32946],[126.39772,33.33191],[126.39868,33.33272],[126.39865,33.33678],[126.40058,33.3376],[126.40054,33.34247],[126.39859,33.3449],[126.39569,33.34488],[126.3957,33.34407],[126.3899,33.34404],[126.38989,33.34485],[126.38698,33.34484],[126.3868,33.34484],[126.38603,33.34483],[126.38602,33.34564],[126.38312,33.34563],[126.38311,33.34644],[126.38149,33.34643],[126.37635,33.34641],[126.37634,33.34722],[126.37441,33.3464],[126.37442,33.34613],[126.37442,33.34559],[126.37249,33.34558],[126.37249,33.34477],[126.37056,33.34394],[126.37058,33.34232],[126.37009,33.34232],[126.36961,33.34194],[126.36961,33.34151],[126.36285,33.34147],[126.36284,33.34228],[126.35994,33.34227],[126.35995,33.34146],[126.35705,33.34144],[126.35705,33.34063],[126.35125,33.3406],[126.35125,33.34141],[126.35028,33.34141],[126.35029,33.34059],[126.34932,33.34059],[126.34931,33.3414],[126.34544,33.34219],[126.34543,33.343],[126.33963,33.34378],[126.33965,33.34135],[126.33579,33.33971],[126.33485,33.33646],[126.33388,33.33645],[126.33196,33.33482],[126.33196,33.33452],[126.33197,33.33401],[126.33167,33.334],[126.33082,33.334],[126.33067,33.334],[126.32908,33.33237],[126.32908,33.3325],[126.32896,33.33237],[126.32811,33.33236],[126.32813,33.33074],[126.32716,33.33019],[126.32716,33.33039],[126.32679,33.32998],[126.32524,33.3291],[126.32525,33.32748],[126.32332,33.32747],[126.32333,33.32627],[126.32333,33.32584],[126.32085,33.32583],[126.32043,33.32583],[126.31945,33.32745],[126.31462,33.32742],[126.31463,33.32661],[126.31076,33.32659],[126.31077,33.32578],[126.3069,33.32575],[126.3069,33.32629],[126.30619,33.32656],[126.30582,33.32656],[126.30496,33.32655],[126.30497,33.32594],[126.3047,33.32574],[126.304,33.32574],[126.30401,33.32412],[126.30208,33.3241],[126.3016,33.32329],[126.30112,33.32329],[126.30112,33.32302],[126.30159,33.32326],[126.30113,33.32248],[126.29726,33.32245],[126.29534,33.32082],[126.29537,33.31757],[126.2944,33.31757],[126.29442,33.31514]]],[[[126.3095,33.24138],[126.31048,33.23895],[126.31434,33.23897],[126.31721,33.24304],[126.31719,33.24548],[126.31236,33.24545],[126.30948,33.24381],[126.3095,33.24138]]],[[[126.31398,33.28522],[126.314,33.2836],[126.31786,33.28362],[126.31975,33.28931],[126.31492,33.28928],[126.31398,33.28522]]],[[[126.36732,33.2571],[126.36444,33.25547],[126.36349,33.25303],[126.36447,33.25141],[126.37219,33.25145],[126.37508,33.25309],[126.37506,33.25633],[126.37119,33.25631],[126.37118,33.25793],[126.36732,33.2571]]],[[[126.60094,33.28404],[126.60094,33.28242],[126.60481,33.28243],[126.60576,33.28568],[126.60189,33.28648],[126.60094,33.28404]]],[[[126.6009,33.29215],[126.60186,33.29297],[126.60184,33.29784],[126.59894,33.29702],[126.59896,33.29296],[126.6009,33.29215]]],[[[126.79292,33.40298],[126.79389,33.40136],[126.79776,33.40137],[126.80066,33.40299],[126.80162,33.40543],[126.80065,33.40867],[126.79581,33.40867],[126.79387,33.40785],[126.79195,33.40541],[126.79292,33.40298]]]]}}]}