{
 "type": "FeatureCollection",
 "_about": {
  "what": "client/land_mask_korea.json 에 없는 작은 섬 테두리 — 사용자가 island_editor 로 직접 그림",
  "exported_at": "2026-10-09T16:55:05.189Z",
  "count": 21
 },
 "features": [
  {
   "type": "Feature",
   "geometry": {
    "type": "Polygon",
    "coordinates": [
     [
      [
       126.487011,
       35.664813
      ],
      [
       126.486968,
       35.664063
      ],
      [
       126.48671,
       35.663192
      ],
      [
       126.487096,
       35.662407
      ],
      [
       126.487697,
       35.661971
      ],
      [
       126.486946,
       35.661483
      ],
      [
       126.485315,
       35.661065
      ],
      [
       126.484414,
       35.660681
      ],
      [
       126.483728,
       35.660908
      ],
      [
       126.484114,
       35.661762
      ],
      [
       126.484157,
       35.662599
      ],
      [
       126.484543,
       35.664011
      ],
      [
       126.484994,
       35.665092
      ],
      [
       126.486174,
       35.665441
      ],
      [
       126.487011,
       35.664813
      ]
     ]
    ]
   },
   "properties": {
    "target_id": 10,
    "name": "하섬",
    "spot": "하섬",
    "sgg": "52800",
    "drawn_at": "2026-10-09T16:49:39.120Z",
    "source": "사용자 직접 그림(island_editor 내보내기 2026-10-09)"
   }
  },
  {
   "type": "Feature",
   "geometry": {
    "type": "Polygon",
    "coordinates": [
     [
      [
       126.518906,
       36.245605
      ],
      [
       126.521373,
       36.246228
      ],
      [
       126.523133,
       36.246626
      ],
      [
       126.524957,
       36.246419
      ],
      [
       126.524957,
       36.245934
      ],
      [
       126.52412,
       36.245674
      ],
      [
       126.523583,
       36.244826
      ],
      [
       126.522553,
       36.243598
      ],
      [
       126.522039,
       36.243338
      ],
      [
       126.520322,
       36.243494
      ],
      [
       126.52015,
       36.242127
      ],
      [
       126.519507,
       36.241469
      ],
      [
       126.519034,
       36.240881
      ],
      [
       126.518348,
       36.240638
      ],
      [
       126.517296,
       36.241175
      ],
      [
       126.516266,
       36.242127
      ],
      [
       126.517103,
       36.243529
      ],
      [
       126.51809,
       36.244775
      ],
      [
       126.518906,
       36.245605
      ]
     ]
    ]
   },
   "properties": {
    "target_id": 8,
    "name": "석대도",
    "spot": "석대도",
    "sgg": "44180",
    "drawn_at": "2026-10-09T16:49:15.611Z",
    "source": "사용자 직접 그림(island_editor 내보내기 2026-10-09)"
   }
  },
  {
   "type": "Feature",
   "geometry": {
    "type": "Polygon",
    "coordinates": [
     [
      [
       126.436932,
       36.401386
      ],
      [
       126.437662,
       36.400626
      ],
      [
       126.438156,
       36.399849
      ],
      [
       126.437941,
       36.398761
      ],
      [
       126.436525,
       36.39845
      ],
      [
       126.435409,
       36.398277
      ],
      [
       126.434143,
       36.397776
      ],
      [
       126.433199,
       36.397362
      ],
      [
       126.431911,
       36.39712
      ],
      [
       126.431053,
       36.396619
      ],
      [
       126.429894,
       36.396706
      ],
      [
       126.429401,
       36.397103
      ],
      [
       126.429873,
       36.398277
      ],
      [
       126.430667,
       36.399763
      ],
      [
       126.431783,
       36.40054
      ],
      [
       126.432662,
       36.401403
      ],
      [
       126.435452,
       36.401438
      ],
      [
       126.436932,
       36.401386
      ]
     ]
    ]
   },
   "properties": {
    "target_id": 9,
    "name": "소도(보령)",
    "spot": "소도",
    "sgg": "44180",
    "drawn_at": "2026-10-09T16:49:28.239Z",
    "source": "사용자 직접 그림(island_editor 내보내기 2026-10-09)"
   }
  },
  {
   "type": "Feature",
   "geometry": {
    "type": "Polygon",
    "coordinates": [
     [
      [
       126.442962,
       36.520146
      ],
      [
       126.442447,
       36.519439
      ],
      [
       126.441631,
       36.518939
      ],
      [
       126.44176,
       36.518456
      ],
      [
       126.442404,
       36.517853
      ],
      [
       126.443048,
       36.517253
      ],
      [
       126.444527,
       36.516381
      ],
      [
       126.443905,
       36.516001
      ],
      [
       126.442725,
       36.515967
      ],
      [
       126.441394,
       36.515743
      ],
      [
       126.440922,
       36.515243
      ],
      [
       126.440364,
       36.515139
      ],
      [
       126.439635,
       36.515691
      ],
      [
       126.438969,
       36.515829
      ],
      [
       126.438969,
       36.516777
      ],
      [
       126.439613,
       36.516846
      ],
      [
       126.439785,
       36.517243
      ],
      [
       126.439849,
       36.517622
      ],
      [
       126.440536,
       36.517622
      ],
      [
       126.440042,
       36.519123
      ],
      [
       126.439613,
       36.518864
      ],
      [
       126.438798,
       36.518899
      ],
      [
       126.438218,
       36.518536
      ],
      [
       126.437854,
       36.517812
      ],
      [
       126.436952,
       36.517553
      ],
      [
       126.436073,
       36.517985
      ],
      [
       126.435837,
       36.518554
      ],
      [
       126.434914,
       36.518899
      ],
      [
       126.435408,
       36.519433
      ],
      [
       126.436201,
       36.518899
      ],
      [
       126.436995,
       36.518554
      ],
      [
       126.437811,
       36.518743
      ],
      [
       126.437467,
       36.519433
      ],
      [
       126.437038,
       36.519812
      ],
      [
       126.436223,
       36.520295
      ],
      [
       126.436974,
       36.521278
      ],
      [
       126.437639,
       36.521175
      ],
      [
       126.437897,
       36.520675
      ],
      [
       126.438878,
       36.521687
      ],
      [
       126.439758,
       36.521601
      ],
      [
       126.442268,
       36.52198
      ],
      [
       126.442962,
       36.520146
      ]
     ]
    ]
   },
   "properties": {
    "target_id": 7,
    "name": "죽도(홍성)",
    "spot": "죽도(홍성)",
    "sgg": "44800",
    "drawn_at": "2026-10-09T16:48:43.707Z",
    "source": "사용자 직접 그림(island_editor 내보내기 2026-10-09)"
   }
  },
  {
   "type": "Feature",
   "geometry": {
    "type": "Polygon",
    "coordinates": [
     [
      [
       126.009705,
       36.647297
      ],
      [
       126.008782,
       36.646763
      ],
      [
       126.007859,
       36.646402
      ],
      [
       126.007001,
       36.646247
      ],
      [
       126.00625,
       36.646677
      ],
      [
       126.00655,
       36.647383
      ],
      [
       126.007452,
       36.647865
      ],
      [
       126.008288,
       36.648761
      ],
      [
       126.009233,
       36.649604
      ],
      [
       126.009791,
       36.649897
      ],
      [
       126.010048,
       36.649191
      ],
      [
       126.009962,
       36.648743
      ],
      [
       126.010348,
       36.648106
      ],
      [
       126.010198,
       36.647314
      ],
      [
       126.009705,
       36.647297
      ]
     ]
    ]
   },
   "properties": {
    "target_id": 6,
    "name": "옹도",
    "spot": "옹도 등대",
    "sgg": "44825",
    "drawn_at": "2026-10-09T16:48:18.825Z",
    "source": "사용자 직접 그림(island_editor 내보내기 2026-10-09)"
   }
  },
  {
   "type": "Feature",
   "geometry": {
    "type": "Polygon",
    "coordinates": [
     [
      [
       126.14732,
       33.313465
      ],
      [
       126.151182,
       33.313877
      ],
      [
       126.153585,
       33.313088
      ],
      [
       126.154058,
       33.311457
      ],
      [
       126.153414,
       33.309287
      ],
      [
       126.152792,
       33.306902
      ],
      [
       126.150281,
       33.307063
      ],
      [
       126.147685,
       33.307727
      ],
      [
       126.144788,
       33.308964
      ],
      [
       126.143822,
       33.310685
      ],
      [
       126.143136,
       33.31203
      ],
      [
       126.146204,
       33.313321
      ],
      [
       126.14732,
       33.313465
      ]
     ]
    ]
   },
   "properties": {
    "target_id": 19,
    "name": "차귀도",
    "spot": "차귀도",
    "sgg": "50110",
    "drawn_at": "2026-10-09T16:51:37.797Z",
    "source": "사용자 직접 그림(island_editor 내보내기 2026-10-09)"
   }
  },
  {
   "type": "Feature",
   "geometry": {
    "type": "Polygon",
    "coordinates": [
     [
      [
       126.909372,
       33.520732
      ],
      [
       126.908728,
       33.519748
      ],
      [
       126.907484,
       33.519605
      ],
      [
       126.907484,
       33.520321
      ],
      [
       126.909372,
       33.520732
      ]
     ]
    ]
   },
   "properties": {
    "target_id": 20,
    "name": "토끼섬(제주)",
    "spot": "제주 토끼섬 문주란 자생지",
    "sgg": "50110",
    "drawn_at": "2026-10-09T16:51:43.511Z",
    "source": "사용자 직접 그림(island_editor 내보내기 2026-10-09)"
   }
  },
  {
   "type": "Feature",
   "geometry": {
    "type": "Polygon",
    "coordinates": [
     [
      [
       126.63405,
       37.188082
      ],
      [
       126.633363,
       37.187278
      ],
      [
       126.632719,
       37.186646
      ],
      [
       126.631711,
       37.18627
      ],
      [
       126.630938,
       37.185894
      ],
      [
       126.630337,
       37.18574
      ],
      [
       126.630509,
       37.186492
      ],
      [
       126.631131,
       37.1875
      ],
      [
       126.633449,
       37.188894
      ],
      [
       126.634737,
       37.188381
      ],
      [
       126.63405,
       37.188082
      ]
     ]
    ]
   },
   "properties": {
    "target_id": 4,
    "name": "누에섬",
    "spot": "누에섬 등대전망대",
    "sgg": "41273",
    "drawn_at": "2026-10-09T16:47:52.883Z",
    "source": "사용자 직접 그림(island_editor 내보내기 2026-10-09)"
   }
  },
  {
   "type": "Feature",
   "geometry": {
    "type": "Polygon",
    "coordinates": [
     [
      [
       126.532915,
       37.228575
      ],
      [
       126.532357,
       37.228866
      ],
      [
       126.532357,
       37.229891
      ],
      [
       126.533043,
       37.231736
      ],
      [
       126.533151,
       37.230711
      ],
      [
       126.533322,
       37.229669
      ],
      [
       126.532915,
       37.228575
      ]
     ]
    ]
   },
   "properties": {
    "target_id": 3,
    "name": "목섬",
    "spot": "목섬",
    "sgg": "28720",
    "drawn_at": "2026-10-09T16:47:41.803Z",
    "source": "사용자 직접 그림(island_editor 내보내기 2026-10-09)"
   }
  },
  {
   "type": "Feature",
   "geometry": {
    "type": "Polygon",
    "coordinates": [
     [
      [
       126.74642,
       37.288249
      ],
      [
       126.740522,
       37.290714
      ],
      [
       126.735074,
       37.291907
      ],
      [
       126.729175,
       37.291987
      ],
      [
       126.723577,
       37.290118
      ],
      [
       126.721278,
       37.287056
      ],
      [
       126.723177,
       37.283596
      ],
      [
       126.724177,
       37.281687
      ],
      [
       126.737173,
       37.280573
      ],
      [
       126.74487,
       37.27934
      ],
      [
       126.74627,
       37.279738
      ],
      [
       126.74747,
       37.285226
      ],
      [
       126.748219,
       37.287732
      ],
      [
       126.74642,
       37.288249
      ]
     ]
    ]
   },
   "properties": {
    "target_id": 5,
    "name": "우음도",
    "spot": "우음도",
    "sgg": "41590",
    "drawn_at": "2026-10-09T16:48:08.193Z",
    "source": "사용자 직접 그림(island_editor 내보내기 2026-10-09)"
   }
  },
  {
   "type": "Feature",
   "geometry": {
    "type": "Polygon",
    "coordinates": [
     [
      [
       126.511598,
       37.359599
      ],
      [
       126.512585,
       37.359548
      ],
      [
       126.512864,
       37.359855
      ],
      [
       126.513701,
       37.360674
      ],
      [
       126.51561,
       37.360861
      ],
      [
       126.515095,
       37.360367
      ],
      [
       126.513915,
       37.359872
      ],
      [
       126.513701,
       37.359241
      ],
      [
       126.513465,
       37.358576
      ],
      [
       126.513164,
       37.358081
      ],
      [
       126.513314,
       37.357706
      ],
      [
       126.513229,
       37.357365
      ],
      [
       126.512349,
       37.356802
      ],
      [
       126.511555,
       37.356393
      ],
      [
       126.510611,
       37.356785
      ],
      [
       126.509602,
       37.356819
      ],
      [
       126.509409,
       37.357416
      ],
      [
       126.509516,
       37.3582
      ],
      [
       126.509409,
       37.35878
      ],
      [
       126.509688,
       37.359463
      ],
      [
       126.510031,
       37.359872
      ],
      [
       126.511598,
       37.359599
      ]
     ]
    ]
   },
   "properties": {
    "target_id": 1,
    "name": "팔미도",
    "spot": "인천 팔미도 등대",
    "sgg": "28110",
    "drawn_at": "2026-10-09T16:47:20.870Z",
    "source": "사용자 직접 그림(island_editor 내보내기 2026-10-09)"
   }
  },
  {
   "type": "Feature",
   "geometry": {
    "type": "Polygon",
    "coordinates": [
     [
      [
       126.413914,
       37.419471
      ],
      [
       126.414579,
       37.419233
      ],
      [
       126.415352,
       37.419591
      ],
      [
       126.41576,
       37.419062
      ],
      [
       126.415867,
       37.418278
      ],
      [
       126.415738,
       37.417409
      ],
      [
       126.415416,
       37.417085
      ],
      [
       126.414322,
       37.416813
      ],
      [
       126.413206,
       37.416745
      ],
      [
       126.412884,
       37.417443
      ],
      [
       126.412412,
       37.418261
      ],
      [
       126.412671,
       37.420154
      ],
      [
       126.413914,
       37.419471
      ]
     ]
    ]
   },
   "properties": {
    "target_id": 2,
    "name": "잠진도",
    "spot": "잠진도",
    "sgg": "28110",
    "drawn_at": "2026-10-09T16:47:32.433Z",
    "source": "사용자 직접 그림(island_editor 내보내기 2026-10-09)"
   }
  },
  {
   "type": "Feature",
   "geometry": {
    "type": "Polygon",
    "coordinates": [
     [
      [
       131.872195,
       37.240964
      ],
      [
       131.873333,
       37.239478
      ],
      [
       131.870801,
       37.237787
      ],
      [
       131.868355,
       37.237496
      ],
      [
       131.860823,
       37.238812
      ],
      [
       131.860136,
       37.241989
      ],
      [
       131.86184,
       37.243964
      ],
      [
       131.862727,
       37.246668
      ],
      [
       131.863579,
       37.247994
      ],
      [
       131.865362,
       37.247501
      ],
      [
       131.864935,
       37.245187
      ],
      [
       131.867726,
       37.24383
      ],
      [
       131.872195,
       37.240964
      ]
     ]
    ]
   },
   "properties": {
    "target_id": 11,
    "name": "독도",
    "spot": "독도",
    "sgg": "47940",
    "drawn_at": "2026-10-09T16:49:50.795Z",
    "source": "사용자 직접 그림(island_editor 내보내기 2026-10-09)"
   }
  },
  {
   "type": "Feature",
   "geometry": {
    "type": "Polygon",
    "coordinates": [
     [
      [
       128.710942,
       34.77261
      ],
      [
       128.711135,
       34.771958
      ],
      [
       128.712744,
       34.772398
      ],
      [
       128.713023,
       34.771711
      ],
      [
       128.713538,
       34.770829
      ],
      [
       128.714461,
       34.770195
      ],
      [
       128.715169,
       34.769931
      ],
      [
       128.715963,
       34.770424
      ],
      [
       128.716971,
       34.770759
      ],
      [
       128.717937,
       34.770195
      ],
      [
       128.718216,
       34.769508
      ],
      [
       128.718924,
       34.768591
      ],
      [
       128.719439,
       34.767745
      ],
      [
       128.718988,
       34.766581
      ],
      [
       128.717314,
       34.766493
      ],
      [
       128.717465,
       34.767287
      ],
      [
       128.717036,
       34.767428
      ],
      [
       128.715748,
       34.767322
      ],
      [
       128.714804,
       34.767939
      ],
      [
       128.713495,
       34.767339
      ],
      [
       128.712594,
       34.766793
      ],
      [
       128.710598,
       34.766828
      ],
      [
       128.709504,
       34.767956
      ],
      [
       128.709461,
       34.768767
      ],
      [
       128.708216,
       34.769366
      ],
      [
       128.708388,
       34.770265
      ],
      [
       128.709289,
       34.771975
      ],
      [
       128.709954,
       34.772804
      ],
      [
       128.710942,
       34.77261
      ]
     ]
    ]
   },
   "properties": {
    "target_id": 16,
    "name": "외도",
    "spot": "외도 보타니아",
    "sgg": "48310",
    "drawn_at": "2026-10-09T16:51:06.597Z",
    "source": "사용자 직접 그림(island_editor 내보내기 2026-10-09)"
   }
  },
  {
   "type": "Feature",
   "geometry": {
    "type": "Polygon",
    "coordinates": [
     [
      [
       128.562875,
       35.065888
      ],
      [
       128.563507,
       35.060719
      ],
      [
       128.568322,
       35.054322
      ],
      [
       128.563586,
       35.05206
      ],
      [
       128.553482,
       35.054645
      ],
      [
       128.541326,
       35.069183
      ],
      [
       128.547877,
       35.070281
      ],
      [
       128.556324,
       35.069506
      ],
      [
       128.562875,
       35.065888
      ]
     ]
    ]
   },
   "properties": {
    "target_id": 14,
    "name": "저도(창원)",
    "spot": "저도(창원)",
    "sgg": "48125",
    "drawn_at": "2026-10-09T16:50:34.741Z",
    "source": "사용자 직접 그림(island_editor 내보내기 2026-10-09)"
   }
  },
  {
   "type": "Feature",
   "geometry": {
    "type": "Polygon",
    "coordinates": [
     [
      [
       128.712796,
       35.082575
      ],
      [
       128.714469,
       35.081539
      ],
      [
       128.714856,
       35.080468
      ],
      [
       128.713868,
       35.080064
      ],
      [
       128.71168,
       35.079941
      ],
      [
       128.707796,
       35.080643
      ],
      [
       128.70771,
       35.08247
      ],
      [
       128.708783,
       35.083471
      ],
      [
       128.71065,
       35.082821
      ],
      [
       128.712796,
       35.082575
      ]
     ]
    ]
   },
   "properties": {
    "target_id": 12,
    "name": "소쿠리섬",
    "spot": "소쿠리섬",
    "sgg": "48129",
    "drawn_at": "2026-10-09T16:49:59.689Z",
    "source": "사용자 직접 그림(island_editor 내보내기 2026-10-09)"
   }
  },
  {
   "type": "Feature",
   "geometry": {
    "type": "Polygon",
    "coordinates": [
     [
      [
       128.722829,
       35.089385
      ],
      [
       128.723236,
       35.08863
      ],
      [
       128.728944,
       35.088419
      ],
      [
       128.728772,
       35.08798
      ],
      [
       128.723386,
       35.087839
      ],
      [
       128.722249,
       35.086505
      ],
      [
       128.723258,
       35.085539
      ],
      [
       128.723794,
       35.084644
      ],
      [
       128.723172,
       35.083783
      ],
      [
       128.722013,
       35.083415
      ],
      [
       128.720447,
       35.084152
      ],
      [
       128.71931,
       35.083994
      ],
      [
       128.717786,
       35.08359
      ],
      [
       128.717056,
       35.084556
      ],
      [
       128.718601,
       35.0851
      ],
      [
       128.719653,
       35.085996
      ],
      [
       128.718966,
       35.08726
      ],
      [
       128.721198,
       35.088314
      ],
      [
       128.720554,
       35.089314
      ],
      [
       128.718687,
       35.089385
      ],
      [
       128.717099,
       35.090684
      ],
      [
       128.717829,
       35.092036
      ],
      [
       128.71888,
       35.092878
      ],
      [
       128.720511,
       35.093423
      ],
      [
       128.722573,
       35.092425
      ],
      [
       128.723131,
       35.091441
      ],
      [
       128.723002,
       35.090686
      ],
      [
       128.722829,
       35.089385
      ]
     ]
    ]
   },
   "properties": {
    "target_id": 13,
    "name": "우도(창원 진해)",
    "spot": "우도",
    "sgg": "48129",
    "drawn_at": "2026-10-09T16:50:22.777Z",
    "source": "사용자 직접 그림(island_editor 내보내기 2026-10-09)"
   }
  },
  {
   "type": "Feature",
   "geometry": {
    "type": "Polygon",
    "coordinates": [
     [
      [
       128.583869,
       35.179874
      ],
      [
       128.583694,
       35.178685
      ],
      [
       128.58417,
       35.177229
      ],
      [
       128.583468,
       35.177024
      ],
      [
       128.582238,
       35.17768
      ],
      [
       128.580833,
       35.177844
      ],
      [
       128.579102,
       35.178275
      ],
      [
       128.578124,
       35.178767
      ],
      [
       128.578626,
       35.179669
      ],
      [
       128.579278,
       35.180613
      ],
      [
       128.581235,
       35.181002
      ],
      [
       128.583192,
       35.180346
      ],
      [
       128.584196,
       35.179772
      ],
      [
       128.583869,
       35.179874
      ]
     ]
    ]
   },
   "properties": {
    "target_id": 15,
    "name": "돝섬",
    "spot": "돝섬해상유원지",
    "sgg": "48125",
    "drawn_at": "2026-10-09T16:50:48.293Z",
    "source": "사용자 직접 그림(island_editor 내보내기 2026-10-09)"
   }
  },
  {
   "type": "Feature",
   "geometry": {
    "type": "Polygon",
    "coordinates": [
     [
      [
       128.030498,
       34.946618
      ],
      [
       128.032558,
       34.943891
      ],
      [
       128.032214,
       34.942871
      ],
      [
       128.031678,
       34.942185
      ],
      [
       128.02921,
       34.941816
      ],
      [
       128.028888,
       34.942643
      ],
      [
       128.029189,
       34.943891
      ],
      [
       128.028996,
       34.945123
      ],
      [
       128.029575,
       34.946459
      ],
      [
       128.030498,
       34.946618
      ]
     ]
    ]
   },
   "properties": {
    "target_id": 17,
    "name": "저도(딱섬, 사천)",
    "spot": "저도(딱섬)",
    "sgg": "48240",
    "drawn_at": "2026-10-09T16:51:17.737Z",
    "source": "사용자 직접 그림(island_editor 내보내기 2026-10-09)"
   }
  },
  {
   "type": "Feature",
   "geometry": {
    "type": "Polygon",
    "coordinates": [
     [
      [
       128.045029,
       34.927584
      ],
      [
       128.046059,
       34.926581
      ],
      [
       128.046681,
       34.925174
      ],
      [
       128.045372,
       34.9244
      ],
      [
       128.043463,
       34.924294
      ],
      [
       128.041875,
       34.924769
      ],
      [
       128.041896,
       34.926071
      ],
      [
       128.042712,
       34.927303
      ],
      [
       128.045029,
       34.927584
      ]
     ]
    ]
   },
   "properties": {
    "target_id": 18,
    "name": "초양도",
    "spot": "초양도",
    "sgg": "48240",
    "drawn_at": "2026-10-09T16:51:26.281Z",
    "source": "사용자 직접 그림(island_editor 내보내기 2026-10-09)"
   }
  },
  {
   "type": "Feature",
   "geometry": {
    "type": "Polygon",
    "coordinates": [
     [
      [
       128.686134,
       34.736433
      ],
      [
       128.686477,
       34.734247
      ],
      [
       128.686069,
       34.732589
      ],
      [
       128.685511,
       34.73049
      ],
      [
       128.683902,
       34.729362
      ],
      [
       128.681949,
       34.729327
      ],
      [
       128.682121,
       34.730667
      ],
      [
       128.682099,
       34.732677
      ],
      [
       128.681763,
       34.734464
      ],
      [
       128.682471,
       34.735716
      ],
      [
       128.683673,
       34.736474
      ],
      [
       128.685797,
       34.736545
      ],
      [
       128.686134,
       34.736433
      ]
     ]
    ]
   },
   "properties": {
    "target_id": 22,
    "name": "해금강(거제)",
    "spot": "거제도 해금강",
    "sgg": "48310",
    "drawn_at": "2026-10-09T16:52:06.997Z",
    "source": "사용자 직접 그림(island_editor 내보내기 2026-10-09)"
   }
  }
 ]
}